[  
{"Details":"北京Beijing010","Name":"北京市","Pinyin":"Beijing","Zip":"010"},  
{"Details":"重庆Chongqing023","Name":"重庆市","Pinyin":"Chongqing","Zip":"023"},  
{"Details":"上海Shanghai021","Name":"上海市","Pinyin":"Shanghai","Zip":"021"},  
{"Details":"天津Tianjin022","Name":"天津市","Pinyin":"Tianjin","Zip":"022"},  
{"Details":"长春Changchun0431","Name":"长春市","Pinyin":"Changchun","Zip":"0431"},  
{"Details":"长沙Changsha0731","Name":"长沙市","Pinyin":"Changsha","Zip":"0731"},  
{"Details":"常州Changzhou0519","Name":"常州市","Pinyin":"Changzhou","Zip":"0519"},  
{"Details":"成都Chengdu028","Name":"成都市","Pinyin":"Chengdu","Zip":"028"},  
{"Details":"大连Dalian0411","Name":"大连市","Pinyin":"Dalian","Zip":"0411"},  
{"Details":"东莞Dongguan0769","Name":"东莞市","Pinyin":"Dongguan","Zip":"0769"},  
{"Details":"佛山Foshan0757","Name":"佛山市","Pinyin":"Foshan","Zip":"0757"},  
{"Details":"福州Fuzhou0591","Name":"福州市","Pinyin":"Fuzhou","Zip":"0591"},  
{"Details":"广州Guangzhou020","Name":"广州市","Pinyin":"Guangzhou","Zip":"020"},  
{"Details":"贵阳Guiyang0851","Name":"贵阳市","Pinyin":"Guiyang","Zip":"0851"},  
{"Details":"哈尔滨Haerbin0451","Name":"哈尔滨市","Pinyin":"Haerbin","Zip":"0451"},  
{"Details":"海口Haikou0898","Name":"海口市","Pinyin":"Haikou","Zip":"0898"},  
{"Details":"邯郸Handan0310","Name":"邯郸市","Pinyin":"Handan","Zip":"0310"},  
{"Details":"杭州Hangzhou0571","Name":"杭州市","Pinyin":"Hangzhou","Zip":"0571"},  
{"Details":"合肥Hefei0551","Name":"合肥市","Pinyin":"Hefei","Zip":"0551"},  
{"Details":"惠州Huizhou0752","Name":"惠州市","Pinyin":"Huizhou","Zip":"0752"},  
{"Details":"焦作Jiaozuo0391","Name":"焦作市","Pinyin":"Jiaozuo","Zip":"0391"},  
{"Details":"嘉兴Jiaxing0573","Name":"嘉兴市","Pinyin":"Jiaxing","Zip":"0573"},  
{"Details":"吉林Jilin0423","Name":"吉林市","Pinyin":"Jilin","Zip":"0423"},  
{"Details":"济南Jinan0531","Name":"济南市","Pinyin":"Jinan","Zip":"0531"},  
{"Details":"昆明Kunming0871","Name":"昆明市","Pinyin":"Kunming","Zip":"0871"},  
{"Details":"兰州Lanzhou0931","Name":"兰州市","Pinyin":"Lanzhou","Zip":"0931"},  
{"Details":"柳州Liuzhou0772","Name":"柳州市","Pinyin":"Liuzhou","Zip":"0772"},  
{"Details":"洛阳Luoyang0379","Name":"洛阳市","Pinyin":"Luoyang","Zip":"0379"},  
{"Details":"南昌Nanchang0791","Name":"南昌市","Pinyin":"Nanchang","Zip":"0791"},  
{"Details":"南京Nanjing025","Name":"南京市","Pinyin":"Nanjing","Zip":"025"},  
{"Details":"南宁Nanning0771","Name":"南宁市","Pinyin":"Nanning","Zip":"0771"},  
{"Details":"南通Nantong0513","Name":"南通市","Pinyin":"Nantong","Zip":"0513"},  
{"Details":"宁波Ningbo0574","Name":"宁波市","Pinyin":"Ningbo","Zip":"0574"},  
{"Details":"青岛Qingdao0532","Name":"青岛市","Pinyin":"Qingdao","Zip":"0532"},  
{"Details":"泉州Quanzhou0595","Name":"泉州市","Pinyin":"Quanzhou","Zip":"0595"},  
{"Details":"沈阳Shenyang024","Name":"沈阳市","Pinyin":"Shenyang","Zip":"024"},  
{"Details":"深圳Shenzhen0755","Name":"深圳市","Pinyin":"Shenzhen","Zip":"0755"},  
{"Details":"石家庄Shijiazhuang0311","Name":"石家庄市","Pinyin":"Shijiazhuang","Zip":"0311"},  
{"Details":"苏州Suzhou0512","Name":"苏州市","Pinyin":"Suzhou","Zip":"0512"},  
{"Details":"台州Taizhou0576","Name":"台州市","Pinyin":"Taizhou","Zip":"0576"},  
{"Details":"唐山Tangshan0315","Name":"唐山市","Pinyin":"Tangshan","Zip":"0315"},  
{"Details":"潍坊Weifang0536","Name":"潍坊市","Pinyin":"Weifang","Zip":"0536"},  
{"Details":"威海Weihai0631","Name":"威海市","Pinyin":"Weihai","Zip":"0631"},  
{"Details":"武汉Wuhan027","Name":"武汉市","Pinyin":"Wuhan","Zip":"027"},  
{"Details":"无锡Wuxi0510","Name":"无锡市","Pinyin":"Wuxi","Zip":"0510"},  
{"Details":"厦门Xiamen0592","Name":"厦门市","Pinyin":"Xiamen","Zip":"0592"},  
{"Details":"西安Xian029","Name":"西安市","Pinyin":"Xian","Zip":"029"},  
{"Details":"许昌Xuchang0374","Name":"许昌市","Pinyin":"Xuchang","Zip":"0374"},  
{"Details":"徐州Xuzhou0516","Name":"徐州市","Pinyin":"Xuzhou","Zip":"0516"},  
{"Details":"扬州Yangzhou0514","Name":"扬州市","Pinyin":"Yangzhou","Zip":"0514"},  
{"Details":"烟台Yantai0535","Name":"烟台市","Pinyin":"Yantai","Zip":"0535"},  
{"Details":"漳州Zhangzhou0596","Name":"漳州市","Pinyin":"Zhangzhou","Zip":"0596"},  
{"Details":"郑州Zhengzhou0371","Name":"郑州市","Pinyin":"Zhengzhou","Zip":"0371"},  
{"Details":"中山Zhongshan0760","Name":"中山市","Pinyin":"Zhongshan","Zip":"0760"},  
{"Details":"珠海Zhuhai0756","Name":"珠海市","Pinyin":"Zhuhai","Zip":"0756"},  
{"Details":"阿坝Aba0837","Name":"阿坝市","Pinyin":"Aba","Zip":"0837"},  
{"Details":"阿克苏Akesu0997","Name":"阿克苏市","Pinyin":"Akesu","Zip":"0997"},  
{"Details":"阿拉善盟Alashanmeng0483","Name":"阿拉善盟市","Pinyin":"Alashanmeng","Zip":"0483"},  
{"Details":"阿勒泰Aletai0906","Name":"阿勒泰市","Pinyin":"Aletai","Zip":"0906"},  
{"Details":"阿里Ali0897","Name":"阿里市","Pinyin":"Ali","Zip":"0897"},  
{"Details":"安康Ankang0915","Name":"安康市","Pinyin":"Ankang","Zip":"0915"},  
{"Details":"安庆Anqing0556","Name":"安庆市","Pinyin":"Anqing","Zip":"0556"},  
{"Details":"鞍山Anshan0412","Name":"鞍山市","Pinyin":"Anshan","Zip":"0412"},  
{"Details":"安顺Anshun0853","Name":"安顺市","Pinyin":"Anshun","Zip":"0853"},  
{"Details":"安阳Anyang0372","Name":"安阳市","Pinyin":"Anyang","Zip":"0372"},  
{"Details":"白城Baicheng0436","Name":"白城市","Pinyin":"Baicheng","Zip":"0436"},  
{"Details":"百色Baise0776","Name":"百色市","Pinyin":"Baise","Zip":"0776"},  
{"Details":"白山Baishan0439","Name":"白山市","Pinyin":"Baishan","Zip":"0439"},  
{"Details":"白银Baiyin0943","Name":"白银市","Pinyin":"Baiyin","Zip":"0943"},  
{"Details":"蚌埠Bangbu0552","Name":"蚌埠市","Pinyin":"Bangbu","Zip":"0552"},  
{"Details":"保定Baoding0312","Name":"保定市","Pinyin":"Baoding","Zip":"0312"},  
{"Details":"宝鸡Baoji0917","Name":"宝鸡市","Pinyin":"Baoji","Zip":"0917"},  
{"Details":"保山Baoshan0875","Name":"保山市","Pinyin":"Baoshan","Zip":"0875"},  
{"Details":"包头Baotou0472","Name":"包头市","Pinyin":"Baotou","Zip":"0472"},  
{"Details":"巴彦淖尔Bayannaoer0478","Name":"巴彦淖尔市","Pinyin":"Bayannaoer","Zip":"0478"},  
{"Details":"巴音郭楞Bayinguoleng0996","Name":"巴音郭楞市","Pinyin":"Bayinguoleng","Zip":"0996"},  
{"Details":"巴中Bazhong0827","Name":"巴中市","Pinyin":"Bazhong","Zip":"0827"},  
{"Details":"北海Beihai0779","Name":"北海市","Pinyin":"Beihai","Zip":"0779"},  
{"Details":"本溪Benxi0414","Name":"本溪市","Pinyin":"Benxi","Zip":"0414"},  
{"Details":"毕节Bijie0857","Name":"毕节市","Pinyin":"Bijie","Zip":"0857"},  
{"Details":"滨州Binzhou0543","Name":"滨州市","Pinyin":"Binzhou","Zip":"0543"},  
{"Details":"博尔塔拉Boertala0909","Name":"博尔塔拉市","Pinyin":"Boertala","Zip":"0909"},  
{"Details":"亳州Bozhou0558","Name":"亳州市","Pinyin":"Bozhou","Zip":"0558"},  
{"Details":"沧州Cangzhou0317","Name":"沧州市","Pinyin":"Cangzhou","Zip":"0317"},  
{"Details":"常德Changde0736","Name":"常德市","Pinyin":"Changde","Zip":"0736"},  
{"Details":"昌都Changdu0895","Name":"昌都市","Pinyin":"Changdu","Zip":"0895"},  
{"Details":"昌吉Changji0997","Name":"昌吉市","Pinyin":"Changji","Zip":"0997"},  
{"Details":"长治Changzhi0355","Name":"长治市","Pinyin":"Changzhi","Zip":"0355"},  
{"Details":"巢湖Chaohu0565","Name":"巢湖市","Pinyin":"Chaohu","Zip":"0565"},  
{"Details":"朝阳Chaoyang0421","Name":"朝阳市","Pinyin":"Chaoyang","Zip":"0421"},  
{"Details":"潮州Chaozhou0768","Name":"潮州市","Pinyin":"Chaozhou","Zip":"0768"},  
{"Details":"承德Chengde0314","Name":"承德市","Pinyin":"Chengde","Zip":"0314"},  
{"Details":"郴州Chenzhou0735","Name":"郴州市","Pinyin":"Chenzhou","Zip":"0735"},  
{"Details":"赤峰Chifeng0476","Name":"赤峰市","Pinyin":"Chifeng","Zip":"0476"},  
{"Details":"池州Chizhou0566","Name":"池州市","Pinyin":"Chizhou","Zip":"0566"},  
{"Details":"崇左Chongzuo0771","Name":"崇左市","Pinyin":"Chongzuo","Zip":"0771"},  
{"Details":"楚雄Chuxiong0875","Name":"楚雄市","Pinyin":"Chuxiong","Zip":"0875"},  
{"Details":"滁州Chuzhou0550","Name":"滁州市","Pinyin":"Chuzhou","Zip":"0550"},  
{"Details":"大理Dali0872","Name":"大理市","Pinyin":"Dali","Zip":"0872"},  
{"Details":"丹东Dandong0415","Name":"丹东市","Pinyin":"Dandong","Zip":"0415"},  
{"Details":"大庆Daqing0459","Name":"大庆市","Pinyin":"Daqing","Zip":"0459"},  
{"Details":"大同Datong0352","Name":"大同市","Pinyin":"Datong","Zip":"0352"},  
{"Details":"大兴安岭Daxinganling0457","Name":"大兴安岭市","Pinyin":"Daxinganling","Zip":"0457"},  
{"Details":"达州Dazhou0818","Name":"达州市","Pinyin":"Dazhou","Zip":"0818"},  
{"Details":"德宏Dehong0692","Name":"德宏市","Pinyin":"Dehong","Zip":"0692"},  
{"Details":"德阳Deyang0838","Name":"德阳市","Pinyin":"Deyang","Zip":"0838"},  
{"Details":"德州Dezhou0534","Name":"德州市","Pinyin":"Dezhou","Zip":"0534"},  
{"Details":"定西Dingxi0932","Name":"定西市","Pinyin":"Dingxi","Zip":"0932"},  
{"Details":"迪庆Diqing0887","Name":"迪庆市","Pinyin":"Diqing","Zip":"0887"},  
{"Details":"东营Dongying0546","Name":"东营市","Pinyin":"Dongying","Zip":"0546"},  
{"Details":"鄂尔多斯Eerduosi0477","Name":"鄂尔多斯市","Pinyin":"Eerduosi","Zip":"0477"},  
{"Details":"恩施Enshi0718","Name":"恩施市","Pinyin":"Enshi","Zip":"0718"},  
{"Details":"鄂州Ezhou0711","Name":"鄂州市","Pinyin":"Ezhou","Zip":"0711"},  
{"Details":"防城港Fangchenggang0770","Name":"防城港市","Pinyin":"Fangchenggang","Zip":"0770"},  
{"Details":"抚顺Fushun0413","Name":"抚顺市","Pinyin":"Fushun","Zip":"0413"},  
{"Details":"阜新Fuxin0418","Name":"阜新市","Pinyin":"Fuxin","Zip":"0418"},  
{"Details":"阜阳Fuyang0558","Name":"阜阳市","Pinyin":"Fuyang","Zip":"0558"},  
{"Details":"抚州Fuzhou0794","Name":"抚州市","Pinyin":"Fuzhou","Zip":"0794"},  
{"Details":"甘南Gannan0941","Name":"甘南市","Pinyin":"Gannan","Zip":"0941"},  
{"Details":"赣州Ganzhou0797","Name":"赣州市","Pinyin":"Ganzhou","Zip":"0797"},  
{"Details":"甘孜Ganzi0836","Name":"甘孜市","Pinyin":"Ganzi","Zip":"0836"},  
{"Details":"广安Guangan0826","Name":"广安市","Pinyin":"Guangan","Zip":"0826"},  
{"Details":"广元Guangyuan0839","Name":"广元市","Pinyin":"Guangyuan","Zip":"0839"},  
{"Details":"贵港Guigang0775","Name":"贵港市","Pinyin":"Guigang","Zip":"0775"},  
{"Details":"桂林Guilin0773","Name":"桂林市","Pinyin":"Guilin","Zip":"0773"},  
{"Details":"果洛Guoluo0975","Name":"果洛市","Pinyin":"Guoluo","Zip":"0975"},  
{"Details":"固原Guyuan0954","Name":"固原市","Pinyin":"Guyuan","Zip":"0954"},  
{"Details":"海北Haibei0970","Name":"海北市","Pinyin":"Haibei","Zip":"0970"},  
{"Details":"海东Haidong0972","Name":"海东市","Pinyin":"Haidong","Zip":"0972"},  
{"Details":"海南Hainan0974","Name":"海南市","Pinyin":"Hainan","Zip":"0974"},  
{"Details":"海西Haixi0977","Name":"海西市","Pinyin":"Haixi","Zip":"0977"},  
{"Details":"哈密Hami0902","Name":"哈密市","Pinyin":"Hami","Zip":"0902"},  
{"Details":"汉中Hanzhong0916","Name":"汉中市","Pinyin":"Hanzhong","Zip":"0916"},  
{"Details":"鹤壁Hebi0392","Name":"鹤壁市","Pinyin":"Hebi","Zip":"0392"},  
{"Details":"河池Hechi0778","Name":"河池市","Pinyin":"Hechi","Zip":"0778"},  
{"Details":"鹤岗Hegang0468","Name":"鹤岗市","Pinyin":"Hegang","Zip":"0468"},  
{"Details":"黑河Heihe0456","Name":"黑河市","Pinyin":"Heihe","Zip":"0456"},  
{"Details":"衡水Hengshui0318","Name":"衡水市","Pinyin":"Hengshui","Zip":"0318"},  
{"Details":"衡阳Hengyang0734","Name":"衡阳市","Pinyin":"Hengyang","Zip":"0734"},  
{"Details":"和田地Hetiandi0903","Name":"和田地市","Pinyin":"Hetiandi","Zip":"0903"},  
{"Details":"河源Heyuan0762","Name":"河源市","Pinyin":"Heyuan","Zip":"0762"},  
{"Details":"菏泽Heze0530","Name":"菏泽市","Pinyin":"Heze","Zip":"0530"},  
{"Details":"贺州Hezhou0774","Name":"贺州市","Pinyin":"Hezhou","Zip":"0774"},  
{"Details":"红河Honghe0873","Name":"红河市","Pinyin":"Honghe","Zip":"0873"},  
{"Details":"淮安Huaian0517","Name":"淮安市","Pinyin":"Huaian","Zip":"0517"},  
{"Details":"淮北Huaibei0561","Name":"淮北市","Pinyin":"Huaibei","Zip":"0561"},  
{"Details":"怀化Huaihua0745","Name":"怀化市","Pinyin":"Huaihua","Zip":"0745"},  
{"Details":"淮南Huainan0554","Name":"淮南市","Pinyin":"Huainan","Zip":"0554"},  
{"Details":"黄冈Huanggang0713","Name":"黄冈市","Pinyin":"Huanggang","Zip":"0713"},  
{"Details":"黄南Huangnan0973","Name":"黄南市","Pinyin":"Huangnan","Zip":"0973"},  
{"Details":"黄山Huangshan0559","Name":"黄山市","Pinyin":"Huangshan","Zip":"0559"},  
{"Details":"黄石Huangshi0714","Name":"黄石市","Pinyin":"Huangshi","Zip":"0714"},  
{"Details":"呼和浩特Huhehaote0471","Name":"呼和浩特市","Pinyin":"Huhehaote","Zip":"0471"},  
{"Details":"葫芦岛Huludao0429","Name":"葫芦岛市","Pinyin":"Huludao","Zip":"0429"},  
{"Details":"呼伦贝尔Hulunbeier0470","Name":"呼伦贝尔市","Pinyin":"Hulunbeier","Zip":"0470"},  
{"Details":"湖州Huzhou0572","Name":"湖州市","Pinyin":"Huzhou","Zip":"0572"},  
{"Details":"佳木斯Jiamusi0454","Name":"佳木斯市","Pinyin":"Jiamusi","Zip":"0454"},  
{"Details":"江门Jiangmen0750","Name":"江门市","Pinyin":"Jiangmen","Zip":"0750"},  
{"Details":"吉安Jian0796","Name":"吉安市","Pinyin":"Jian","Zip":"0796"},  
{"Details":"嘉峪关Jiayuguan0937","Name":"嘉峪关市","Pinyin":"Jiayuguan","Zip":"0937"},  
{"Details":"揭阳Jieyang0663","Name":"揭阳市","Pinyin":"Jieyang","Zip":"0663"},  
{"Details":"金昌Jinchang0935","Name":"金昌市","Pinyin":"Jinchang","Zip":"0935"},  
{"Details":"晋城Jincheng0356","Name":"晋城市","Pinyin":"Jincheng","Zip":"0356"},  
{"Details":"景德镇Jingdezhen0798","Name":"景德镇市","Pinyin":"Jingdezhen","Zip":"0798"},  
{"Details":"荆门Jingmen0724","Name":"荆门市","Pinyin":"Jingmen","Zip":"0724"},  
{"Details":"荆州Jingzhou0716","Name":"荆州市","Pinyin":"Jingzhou","Zip":"0716"},  
{"Details":"金华Jinhua0579","Name":"金华市","Pinyin":"Jinhua","Zip":"0579"},  
{"Details":"济宁Jining0537","Name":"济宁市","Pinyin":"Jining","Zip":"0537"},  
{"Details":"晋中Jinzhong0354","Name":"晋中市","Pinyin":"Jinzhong","Zip":"0354"},  
{"Details":"锦州Jinzhou0416","Name":"锦州市","Pinyin":"Jinzhou","Zip":"0416"},  
{"Details":"九江Jiujiang0792","Name":"九江市","Pinyin":"Jiujiang","Zip":"0792"},  
{"Details":"酒泉Jiuquan0937","Name":"酒泉市","Pinyin":"Jiuquan","Zip":"0937"},  
{"Details":"鸡西Jixi0467","Name":"鸡西市","Pinyin":"Jixi","Zip":"0467"},  
{"Details":"开封Kaifeng0378","Name":"开封市","Pinyin":"Kaifeng","Zip":"0378"},  
{"Details":"喀什地Kashidi0998","Name":"喀什地市","Pinyin":"Kashidi","Zip":"0998"},  
{"Details":"克拉玛依Kelamayi0990","Name":"克拉玛依市","Pinyin":"Kelamayi","Zip":"0990"},  
{"Details":"克孜勒Kezile0908","Name":"克孜勒市","Pinyin":"Kezile","Zip":"0908"},  
{"Details":"来宾Laibin0772","Name":"来宾市","Pinyin":"Laibin","Zip":"0772"},  
{"Details":"莱芜Laiwu0634","Name":"莱芜市","Pinyin":"Laiwu","Zip":"0634"},  
{"Details":"廊坊Langfang0316","Name":"廊坊市","Pinyin":"Langfang","Zip":"0316"},  
{"Details":"拉萨Lasa0891","Name":"拉萨市","Pinyin":"Lasa","Zip":"0891"},  
{"Details":"乐山Leshan0833","Name":"乐山市","Pinyin":"Leshan","Zip":"0833"},  
{"Details":"凉山Liangshan0834","Name":"凉山市","Pinyin":"Liangshan","Zip":"0834"},  
{"Details":"连云港Lianyungang0518","Name":"连云港市","Pinyin":"Lianyungang","Zip":"0518"},  
{"Details":"聊城Liaocheng0635","Name":"聊城市","Pinyin":"Liaocheng","Zip":"0635"},  
{"Details":"辽阳Liaoyang0419","Name":"辽阳市","Pinyin":"Liaoyang","Zip":"0419"},  
{"Details":"辽源Liaoyuan0437","Name":"辽源市","Pinyin":"Liaoyuan","Zip":"0437"},  
{"Details":"丽江Lijiang0888","Name":"丽江市","Pinyin":"Lijiang","Zip":"0888"},  
{"Details":"临沧Lincang0883","Name":"临沧市","Pinyin":"Lincang","Zip":"0883"},  
{"Details":"临汾Linfen0357","Name":"临汾市","Pinyin":"Linfen","Zip":"0357"},  
{"Details":"临夏Linxia0930","Name":"临夏市","Pinyin":"Linxia","Zip":"0930"},  
{"Details":"临沂Linyi0539","Name":"临沂市","Pinyin":"Linyi","Zip":"0539"},  
{"Details":"林芝Linzhi0894","Name":"林芝市","Pinyin":"Linzhi","Zip":"0894"},  
{"Details":"丽水Lishui0578","Name":"丽水市","Pinyin":"Lishui","Zip":"0578"},  
{"Details":"六安Liuan0564","Name":"六安市","Pinyin":"Liuan","Zip":"0564"},  
{"Details":"六盘水Liupanshui0858","Name":"六盘水市","Pinyin":"Liupanshui","Zip":"0858"},  
{"Details":"陇南Longnan0939","Name":"陇南市","Pinyin":"Longnan","Zip":"0939"},  
{"Details":"龙岩Longyan0597","Name":"龙岩市","Pinyin":"Longyan","Zip":"0597"},  
{"Details":"娄底Loudi0738","Name":"娄底市","Pinyin":"Loudi","Zip":"0738"},  
{"Details":"漯河Luohe0395","Name":"漯河市","Pinyin":"Luohe","Zip":"0395"},  
{"Details":"泸州Luzhou0830","Name":"泸州市","Pinyin":"Luzhou","Zip":"0830"},  
{"Details":"吕梁Lvliang0358","Name":"吕梁市","Pinyin":"Lvliang","Zip":"0358"},  
{"Details":"马鞍山Maanshan0555","Name":"马鞍山市","Pinyin":"Maanshan","Zip":"0555"},  
{"Details":"茂名Maoming0668","Name":"茂名市","Pinyin":"Maoming","Zip":"0668"},  
{"Details":"眉山Meishan028","Name":"眉山市","Pinyin":"Meishan","Zip":"028"},  
{"Details":"梅州Meizhou0753","Name":"梅州市","Pinyin":"Meizhou","Zip":"0753"},  
{"Details":"绵阳Mianyang0816","Name":"绵阳市","Pinyin":"Mianyang","Zip":"0816"},  
{"Details":"牡丹江Mudanjiang0453","Name":"牡丹江市","Pinyin":"Mudanjiang","Zip":"0453"},  
{"Details":"南充Nanchong0817","Name":"南充市","Pinyin":"Nanchong","Zip":"0817"},  
{"Details":"南平Nanping0599","Name":"南平市","Pinyin":"Nanping","Zip":"0599"},  
{"Details":"南阳Nanyang0377","Name":"南阳市","Pinyin":"Nanyang","Zip":"0377"},  
{"Details":"那曲Naqu0896","Name":"那曲市","Pinyin":"Naqu","Zip":"0896"},  
{"Details":"内江Neijiang0832","Name":"内江市","Pinyin":"Neijiang","Zip":"0832"},  
{"Details":"宁德Ningde0593","Name":"宁德市","Pinyin":"Ningde","Zip":"0593"},  
{"Details":"怒江Nujiang0886","Name":"怒江市","Pinyin":"Nujiang","Zip":"0886"},  
{"Details":"盘锦Panjin0427","Name":"盘锦市","Pinyin":"Panjin","Zip":"0427"},  
{"Details":"攀枝花Panzhihua0812","Name":"攀枝花市","Pinyin":"Panzhihua","Zip":"0812"},  
{"Details":"平顶山Pingdingshan0375","Name":"平顶山市","Pinyin":"Pingdingshan","Zip":"0375"},  
{"Details":"平凉Pingliang0933","Name":"平凉市","Pinyin":"Pingliang","Zip":"0933"},  
{"Details":"萍乡Pingxiang0799","Name":"萍乡市","Pinyin":"Pingxiang","Zip":"0799"},  
{"Details":"普洱Puer0879","Name":"普洱市","Pinyin":"Puer","Zip":"0879"},  
{"Details":"莆田Putian0594","Name":"莆田市","Pinyin":"Putian","Zip":"0594"},  
{"Details":"濮阳Puyang0393","Name":"濮阳市","Pinyin":"Puyang","Zip":"0393"},  
{"Details":"黔东Qiandong0855","Name":"黔东市","Pinyin":"Qiandong","Zip":"0855"},  
{"Details":"黔南Qiannan0854","Name":"黔南市","Pinyin":"Qiannan","Zip":"0854"},  
{"Details":"黔西南Qianxinan0859","Name":"黔西南市","Pinyin":"Qianxinan","Zip":"0859"},  
{"Details":"庆阳Qingyang0934","Name":"庆阳市","Pinyin":"Qingyang","Zip":"0934"},  
{"Details":"清远Qingyuan0763","Name":"清远市","Pinyin":"Qingyuan","Zip":"0763"},  
{"Details":"秦皇岛Qinhuangdao0335","Name":"秦皇岛市","Pinyin":"Qinhuangdao","Zip":"0335"},  
{"Details":"钦州Qinzhou0777","Name":"钦州市","Pinyin":"Qinzhou","Zip":"0777"},  
{"Details":"齐齐哈尔Qiqihaer0452","Name":"齐齐哈尔市","Pinyin":"Qiqihaer","Zip":"0452"},  
{"Details":"七台河Qitaihe0464","Name":"七台河市","Pinyin":"Qitaihe","Zip":"0464"},  
{"Details":"曲靖Qujing0874","Name":"曲靖市","Pinyin":"Qujing","Zip":"0874"},  
{"Details":"衢州Quzhou0570","Name":"衢州市","Pinyin":"Quzhou","Zip":"0570"},  
{"Details":"日喀则Rikaze0892","Name":"日喀则市","Pinyin":"Rikaze","Zip":"0892"},  
{"Details":"日照Rizhao0633","Name":"日照市","Pinyin":"Rizhao","Zip":"0633"},  
{"Details":"三门峡Sanmenxia0398","Name":"三门峡市","Pinyin":"Sanmenxia","Zip":"0398"},  
{"Details":"三明Sanming0598","Name":"三明市","Pinyin":"Sanming","Zip":"0598"},  
{"Details":"三亚Sanya0899","Name":"三亚市","Pinyin":"Sanya","Zip":"0899"},  
{"Details":"商洛Shangluo0914","Name":"商洛市","Pinyin":"Shangluo","Zip":"0914"},  
{"Details":"商丘Shangqiu0370","Name":"商丘市","Pinyin":"Shangqiu","Zip":"0370"},  
{"Details":"上饶Shangrao0793","Name":"上饶市","Pinyin":"Shangrao","Zip":"0793"},  
{"Details":"山南Shannan0893","Name":"山南市","Pinyin":"Shannan","Zip":"0893"},  
{"Details":"汕头Shantou0754","Name":"汕头市","Pinyin":"Shantou","Zip":"0754"},  
{"Details":"汕尾Shanwei0660","Name":"汕尾市","Pinyin":"Shanwei","Zip":"0660"},  
{"Details":"韶关Shaoguan0751","Name":"韶关市","Pinyin":"Shaoguan","Zip":"0751"},  
{"Details":"绍兴Shaoxing0575","Name":"绍兴市","Pinyin":"Shaoxing","Zip":"0575"},  
{"Details":"邵阳Shaoyang0739","Name":"邵阳市","Pinyin":"Shaoyang","Zip":"0739"},  
{"Details":"十堰Shiyan0719","Name":"十堰市","Pinyin":"Shiyan","Zip":"0719"},  
{"Details":"石嘴山Shizuishan0952","Name":"石嘴山市","Pinyin":"Shizuishan","Zip":"0952"},  
{"Details":"双鸭山Shuangyashan0469","Name":"双鸭山市","Pinyin":"Shuangyashan","Zip":"0469"},  
{"Details":"朔州Shuozhou0349","Name":"朔州市","Pinyin":"Shuozhou","Zip":"0349"},  
{"Details":"四平Siping0434","Name":"四平市","Pinyin":"Siping","Zip":"0434"},  
{"Details":"松原Songyuan0438","Name":"松原市","Pinyin":"Songyuan","Zip":"0438"},  
{"Details":"绥化Suihua0455","Name":"绥化市","Pinyin":"Suihua","Zip":"0455"},  
{"Details":"遂宁Suining0825","Name":"遂宁市","Pinyin":"Suining","Zip":"0825"},  
{"Details":"随州Suizhou0722","Name":"随州市","Pinyin":"Suizhou","Zip":"0722"},  
{"Details":"宿迁Suqian0527","Name":"宿迁市","Pinyin":"Suqian","Zip":"0527"},  
{"Details":"宿州Suzhou0557","Name":"宿州市","Pinyin":"Suzhou","Zip":"0557"},  
{"Details":"塔城地Tachengdi0901","Name":"塔城地区","Pinyin":"Tachengdi","Zip":"0901"},  
{"Details":"泰安Taian0538","Name":"泰安市","Pinyin":"Taian","Zip":"0538"},  
{"Details":"太原Taiyuan0351","Name":"太原市","Pinyin":"Taiyuan","Zip":"0351"},  
{"Details":"泰州Taizhou0523","Name":"泰州市","Pinyin":"Taizhou","Zip":"0523"},  
{"Details":"天水Tianshui0938","Name":"天水市","Pinyin":"Tianshui","Zip":"0938"},  
{"Details":"铁岭Tieling0410","Name":"铁岭市","Pinyin":"Tieling","Zip":"0410"},  
{"Details":"铜川Tongchuan0919","Name":"铜川市","Pinyin":"Tongchuan","Zip":"0919"},  
{"Details":"通化Tonghua0435","Name":"通化市","Pinyin":"Tonghua","Zip":"0435"},  
{"Details":"通辽Tongliao0475","Name":"通辽市","Pinyin":"Tongliao","Zip":"0475"},  
{"Details":"铜陵Tongling0562","Name":"铜陵市","Pinyin":"Tongling","Zip":"0562"},  
{"Details":"铜仁Tongren0856","Name":"铜仁市","Pinyin":"Tongren","Zip":"0856"},  
{"Details":"吐鲁番Tulufan0995","Name":"吐鲁番市","Pinyin":"Tulufan","Zip":"0995"},  
{"Details":"渭南Weinan0913","Name":"渭南市","Pinyin":"Weinan","Zip":"0913"},  
{"Details":"文山Wenshan0876","Name":"文山市","Pinyin":"Wenshan","Zip":"0876"},  
{"Details":"温州Wenzhou0577","Name":"温州市","Pinyin":"Wenzhou","Zip":"0577"},  
{"Details":"乌海Wuhai0473","Name":"乌海市","Pinyin":"Wuhai","Zip":"0473"},  
{"Details":"芜湖Wuhu0553","Name":"芜湖市","Pinyin":"Wuhu","Zip":"0553"},  
{"Details":"乌兰察布Wulanchabu0474","Name":"乌兰察布市","Pinyin":"Wulanchabu","Zip":"0474"},  
{"Details":"乌鲁木齐Wulumuqi0991","Name":"乌鲁木齐市","Pinyin":"Wulumuqi","Zip":"0991"},  
{"Details":"武威Wuwei0935","Name":"武威市","Pinyin":"Wuwei","Zip":"0935"},  
{"Details":"吴忠Wuzhong0953","Name":"吴忠市","Pinyin":"Wuzhong","Zip":"0953"},  
{"Details":"梧州Wuzhou0774","Name":"梧州市","Pinyin":"Wuzhou","Zip":"0774"},  
{"Details":"襄樊Xiangfan0710","Name":"襄樊市","Pinyin":"Xiangfan","Zip":"0710"},  
{"Details":"湘潭Xiangtan0732","Name":"湘潭市","Pinyin":"Xiangtan","Zip":"0732"},  
{"Details":"湘西Xiangxi0743","Name":"湘西市","Pinyin":"Xiangxi","Zip":"0743"},  
{"Details":"咸宁Xianning0715","Name":"咸宁市","Pinyin":"Xianning","Zip":"0715"},  
{"Details":"咸阳Xianyang029","Name":"咸阳市","Pinyin":"Xianyang","Zip":"029"},  
{"Details":"孝感Xiaogan0712","Name":"孝感市","Pinyin":"Xiaogan","Zip":"0712"},  
{"Details":"锡林郭勒盟Xilinguolemeng0479","Name":"锡林郭勒盟市","Pinyin":"Xilinguolemeng","Zip":"0479"},  
{"Details":"兴安盟Xinganmeng0482","Name":"兴安盟市","Pinyin":"Xinganmeng","Zip":"0482"},  
{"Details":"邢台Xingtai0319","Name":"邢台市","Pinyin":"Xingtai","Zip":"0319"},  
{"Details":"西宁Xining0971","Name":"西宁市","Pinyin":"Xining","Zip":"0971"},  
{"Details":"新乡Xinxiang0373","Name":"新乡市","Pinyin":"Xinxiang","Zip":"0373"},  
{"Details":"信阳Xinyang0376","Name":"信阳市","Pinyin":"Xinyang","Zip":"0376"},  
{"Details":"新余Xinyu0790","Name":"新余市","Pinyin":"Xinyu","Zip":"0790"},  
{"Details":"忻州Xinzhou0350","Name":"忻州市","Pinyin":"Xinzhou","Zip":"0350"},  
{"Details":"西双版纳Xishuangbanna0691","Name":"西双版纳市","Pinyin":"Xishuangbanna","Zip":"0691"},  
{"Details":"宣城Xuancheng0563","Name":"宣城市","Pinyin":"Xuancheng","Zip":"0563"},  
{"Details":"雅安Yaan0835","Name":"雅安市","Pinyin":"Yaan","Zip":"0835"},  
{"Details":"延安Yanan0911","Name":"延安市","Pinyin":"Yanan","Zip":"0911"},  
{"Details":"延边Yanbian0433","Name":"延边市","Pinyin":"Yanbian","Zip":"0433"},  
{"Details":"盐城Yancheng0515","Name":"盐城市","Pinyin":"Yancheng","Zip":"0515"},  
{"Details":"阳江Yangjiang0662","Name":"阳江市","Pinyin":"Yangjiang","Zip":"0662"},  
{"Details":"阳泉Yangquan0353","Name":"阳泉市","Pinyin":"Yangquan","Zip":"0353"},  
{"Details":"宜宾Yibin0831","Name":"宜宾市","Pinyin":"Yibin","Zip":"0831"},  
{"Details":"宜昌Yichang0717","Name":"宜昌市","Pinyin":"Yichang","Zip":"0717"},  
{"Details":"伊春Yichun0458","Name":"伊春市","Pinyin":"Yichun","Zip":"0458"},  
{"Details":"宜春Yichun0795","Name":"宜春市","Pinyin":"Yichun","Zip":"0795"},  
{"Details":"伊犁哈萨克Yilihasake0999","Name":"伊犁哈萨克市","Pinyin":"Yilihasake","Zip":"0999"},  
{"Details":"银川Yinchuan0951","Name":"银川市","Pinyin":"Yinchuan","Zip":"0951"},  
{"Details":"营口Yingkou0417","Name":"营口市","Pinyin":"Yingkou","Zip":"0417"},  
{"Details":"鹰潭Yingtan0701","Name":"鹰潭市","Pinyin":"Yingtan","Zip":"0701"},  
{"Details":"益阳Yiyang0737","Name":"益阳市","Pinyin":"Yiyang","Zip":"0737"},  
{"Details":"永州Yongzhou0746","Name":"永州市","Pinyin":"Yongzhou","Zip":"0746"},  
{"Details":"岳阳Yueyang0730","Name":"岳阳市","Pinyin":"Yueyang","Zip":"0730"},  
{"Details":"玉林Yulin0775","Name":"玉林市","Pinyin":"Yulin","Zip":"0775"},  
{"Details":"榆林Yulin0912","Name":"榆林市","Pinyin":"Yulin","Zip":"0912"},  
{"Details":"运城Yuncheng0359","Name":"运城市","Pinyin":"Yuncheng","Zip":"0359"},  
{"Details":"云浮Yunfu0766","Name":"云浮市","Pinyin":"Yunfu","Zip":"0766"},  
{"Details":"玉树Yushu0976","Name":"玉树市","Pinyin":"Yushu","Zip":"0976"},  
{"Details":"玉溪Yuxi0877","Name":"玉溪市","Pinyin":"Yuxi","Zip":"0877"},  
{"Details":"枣庄Zaozhuang0623","Name":"枣庄市","Pinyin":"Zaozhuang","Zip":"0623"},  
{"Details":"张家界Zhangjiajie0744","Name":"张家界市","Pinyin":"Zhangjiajie","Zip":"0744"},  
{"Details":"张家口Zhangjiakou0313","Name":"张家口市","Pinyin":"Zhangjiakou","Zip":"0313"},  
{"Details":"张掖Zhangye0936","Name":"张掖市","Pinyin":"Zhangye","Zip":"0936"},  
{"Details":"湛江Zhanjiang0759","Name":"湛江市","Pinyin":"Zhanjiang","Zip":"0759"},  
{"Details":"肇庆Zhaoqing0758","Name":"肇庆市","Pinyin":"Zhaoqing","Zip":"0758"},  
{"Details":"昭通Zhaotong0870","Name":"昭通市","Pinyin":"Zhaotong","Zip":"0870"},  
{"Details":"镇江Zhenjiang0511","Name":"镇江市","Pinyin":"Zhenjiang","Zip":"0511"},  
{"Details":"中卫Zhongwei0955","Name":"中卫市","Pinyin":"Zhongwei","Zip":"0955"},  
{"Details":"周口Zhoukou0394","Name":"周口市","Pinyin":"Zhoukou","Zip":"0394"},  
{"Details":"舟山Zhoushan0580","Name":"舟山市","Pinyin":"Zhoushan","Zip":"0580"},  
{"Details":"驻马店Zhumadian0396","Name":"驻马店市","Pinyin":"Zhumadian","Zip":"0396"},  
{"Details":"株洲Zhuzhou0731","Name":"株洲市","Pinyin":"Zhuzhou","Zip":"0731"},  
{"Details":"淄博Zibo0533","Name":"淄博市","Pinyin":"Zibo","Zip":"0533"},  
{"Details":"自贡Zigong0813","Name":"自贡市","Pinyin":"Zigong","Zip":"0813"},  
{"Details":"资阳Ziyang028","Name":"资阳市","Pinyin":"Ziyang","Zip":"028"},  
{"Details":"遵义Zunyi0852","Name":"遵义市","Pinyin":"Zunyi","Zip":"0852"},  
{"Details":"阿城Acheng0451","Name":"阿城市","Pinyin":"Acheng","Zip":"0451"},  
{"Details":"安福Anfu0796","Name":"安福市","Pinyin":"Anfu","Zip":"0796"},  
{"Details":"安吉Anji0572","Name":"安吉市","Pinyin":"Anji","Zip":"0572"},  
{"Details":"安宁Anning0871","Name":"安宁市","Pinyin":"Anning","Zip":"0871"},  
{"Details":"安丘Anqiu0536","Name":"安丘市","Pinyin":"Anqiu","Zip":"0536"},  
{"Details":"安溪Anxi0595","Name":"安溪市","Pinyin":"Anxi","Zip":"0595"},  
{"Details":"安义Anyi0791","Name":"安义市","Pinyin":"Anyi","Zip":"0791"},  
{"Details":"安远Anyuan0797","Name":"安远市","Pinyin":"Anyuan","Zip":"0797"},  
{"Details":"宝应Baoying0514","Name":"宝应市","Pinyin":"Baoying","Zip":"0514"},  
{"Details":"巴彦Bayan0451","Name":"巴彦市","Pinyin":"Bayan","Zip":"0451"},  
{"Details":"滨海Binhai0515","Name":"滨海市","Pinyin":"Binhai","Zip":"0515"},  
{"Details":"宾县Binxian0451","Name":"宾县市","Pinyin":"Binxian","Zip":"0451"},  
{"Details":"宾阳Binyang0771","Name":"宾阳市","Pinyin":"Binyang","Zip":"0771"},  
{"Details":"璧山Bishan023","Name":"璧山市","Pinyin":"Bishan","Zip":"023"},  
{"Details":"博爱Boai0391","Name":"博爱市","Pinyin":"Boai","Zip":"0391"},  
{"Details":"博罗Boluo0752","Name":"博罗市","Pinyin":"Boluo","Zip":"0752"},  
{"Details":"博兴Boxing0543","Name":"博兴市","Pinyin":"Boxing","Zip":"0543"},  
{"Details":"苍南Cangnan0577","Name":"苍南市","Pinyin":"Cangnan","Zip":"0577"},  
{"Details":"苍山Cangshan0539","Name":"苍山市","Pinyin":"Cangshan","Zip":"0539"},  
{"Details":"曹县Caoxian0530","Name":"曹县市","Pinyin":"Caoxian","Zip":"0530"},  
{"Details":"长岛Changdao0535","Name":"长岛市","Pinyin":"Changdao","Zip":"0535"},  
{"Details":"长丰Changfeng0551","Name":"长丰市","Pinyin":"Changfeng","Zip":"0551"},  
{"Details":"长海Changhai0411","Name":"长海市","Pinyin":"Changhai","Zip":"0411"},  
{"Details":"长乐Changle0591","Name":"长乐市","Pinyin":"Changle","Zip":"0591"},  
{"Details":"昌乐Changle0536","Name":"昌乐市","Pinyin":"Changle","Zip":"0536"},  
{"Details":"常山Changshan0570","Name":"常山市","Pinyin":"Changshan","Zip":"0570"},  
{"Details":"常熟Changshu0512","Name":"常熟市","Pinyin":"Changshu","Zip":"0512"},  
{"Details":"长泰Changtai0596","Name":"长泰市","Pinyin":"Changtai","Zip":"0596"},  
{"Details":"长汀Changting0597","Name":"长汀市","Pinyin":"Changting","Zip":"0597"},  
{"Details":"长兴Changxing0572","Name":"长兴市","Pinyin":"Changxing","Zip":"0572"},  
{"Details":"昌邑Changyi0536","Name":"昌邑市","Pinyin":"Changyi","Zip":"0536"},  
{"Details":"潮安Chaoan0768","Name":"潮安市","Pinyin":"Chaoan","Zip":"0768"},  
{"Details":"呈贡Chenggong0871","Name":"呈贡市","Pinyin":"Chenggong","Zip":"0871"},  
{"Details":"城口Chengkou023","Name":"城口市","Pinyin":"Chengkou","Zip":"023"},  
{"Details":"成武Chengwu0530","Name":"成武市","Pinyin":"Chengwu","Zip":"0530"},  
{"Details":"茌平Chiping0635","Name":"茌平市","Pinyin":"Chiping","Zip":"0635"},  
{"Details":"崇仁Chongren0794","Name":"崇仁市","Pinyin":"Chongren","Zip":"0794"},  
{"Details":"崇义Chongyi0797","Name":"崇义市","Pinyin":"Chongyi","Zip":"0797"},  
{"Details":"崇州Chongzhou028","Name":"崇州市","Pinyin":"Chongzhou","Zip":"028"},  
{"Details":"淳安Chunan0571","Name":"淳安市","Pinyin":"Chunan","Zip":"0571"},  
{"Details":"慈溪Cixi0574","Name":"慈溪市","Pinyin":"Cixi","Zip":"0574"},  
{"Details":"从化Conghua020","Name":"从化市","Pinyin":"Conghua","Zip":"020"},  
{"Details":"枞阳Congyang0556","Name":"枞阳市","Pinyin":"Congyang","Zip":"0556"},  
{"Details":"大丰Dafeng0515","Name":"大丰市","Pinyin":"Dafeng","Zip":"0515"},  
{"Details":"岱山Daishan0580","Name":"岱山市","Pinyin":"Daishan","Zip":"0580"},  
{"Details":"砀山Dangshan0557","Name":"砀山市","Pinyin":"Dangshan","Zip":"0557"},  
{"Details":"当涂Dangtu0555","Name":"当涂市","Pinyin":"Dangtu","Zip":"0555"},  
{"Details":"单县Danxian0530","Name":"单县市","Pinyin":"Danxian","Zip":"0530"},  
{"Details":"丹阳Danyang0511","Name":"丹阳市","Pinyin":"Danyang","Zip":"0511"},  
{"Details":"大埔Dapu0753","Name":"大埔市","Pinyin":"Dapu","Zip":"0753"},  
{"Details":"大田Datian0598","Name":"大田市","Pinyin":"Datian","Zip":"0598"},  
{"Details":"大邑Dayi028","Name":"大邑市","Pinyin":"Dayi","Zip":"028"},  
{"Details":"大余Dayu0797","Name":"大余市","Pinyin":"Dayu","Zip":"0797"},  
{"Details":"大足Dazu023","Name":"大足市","Pinyin":"Dazu","Zip":"023"},  
{"Details":"德安Dean0792","Name":"德安市","Pinyin":"Dean","Zip":"0792"},  
{"Details":"德化Dehua0595","Name":"德化市","Pinyin":"Dehua","Zip":"0595"},  
{"Details":"德惠Dehui0431","Name":"德惠市","Pinyin":"Dehui","Zip":"0431"},  
{"Details":"登封Dengfeng0371","Name":"登封市","Pinyin":"Dengfeng","Zip":"0371"},  
{"Details":"德清Deqing0572","Name":"德清市","Pinyin":"Deqing","Zip":"0572"},  
{"Details":"德庆Deqing0758","Name":"德庆市","Pinyin":"Deqing","Zip":"0758"},  
{"Details":"德兴Dexing0793","Name":"德兴市","Pinyin":"Dexing","Zip":"0793"},  
{"Details":"电白Dianbai0668","Name":"电白市","Pinyin":"Dianbai","Zip":"0668"},  
{"Details":"垫江Dianjiang023","Name":"垫江市","Pinyin":"Dianjiang","Zip":"023"},  
{"Details":"定南Dingnan0797","Name":"定南市","Pinyin":"Dingnan","Zip":"0797"},  
{"Details":"定陶Dingtao0530","Name":"定陶市","Pinyin":"Dingtao","Zip":"0530"},  
{"Details":"定远Dingyuan0550","Name":"定远市","Pinyin":"Dingyuan","Zip":"0550"},  
{"Details":"东阿Donga0635","Name":"东阿市","Pinyin":"Donga","Zip":"0635"},  
{"Details":"东海Donghai0518","Name":"东海市","Pinyin":"Donghai","Zip":"0518"},  
{"Details":"东明Dongming0530","Name":"东明市","Pinyin":"Dongming","Zip":"0530"},  
{"Details":"东平Dongping0538","Name":"东平市","Pinyin":"Dongping","Zip":"0538"},  
{"Details":"东山Dongshan0596","Name":"东山市","Pinyin":"Dongshan","Zip":"0596"},  
{"Details":"东台Dongtai0515","Name":"东台市","Pinyin":"Dongtai","Zip":"0515"},  
{"Details":"洞头Dongtou0577","Name":"洞头市","Pinyin":"Dongtou","Zip":"0577"},  
{"Details":"东乡Dongxiang0794","Name":"东乡市","Pinyin":"Dongxiang","Zip":"0794"},  
{"Details":"东阳Dongyang0579","Name":"东阳市","Pinyin":"Dongyang","Zip":"0579"},  
{"Details":"东源Dongyuan0762","Name":"东源市","Pinyin":"Dongyuan","Zip":"0762"},  
{"Details":"东至Dongzhi0566","Name":"东至市","Pinyin":"Dongzhi","Zip":"0566"},  
{"Details":"都昌Duchang0792","Name":"都昌市","Pinyin":"Duchang","Zip":"0792"},  
{"Details":"都江堰Dujiangyan028","Name":"都江堰市","Pinyin":"Dujiangyan","Zip":"028"},  
{"Details":"恩平Enping0750","Name":"恩平市","Pinyin":"Enping","Zip":"0750"},  
{"Details":"法库Faku024","Name":"法库市","Pinyin":"Faku","Zip":"024"},  
{"Details":"繁昌Fanchang0553","Name":"繁昌市","Pinyin":"Fanchang","Zip":"0553"},  
{"Details":"方正Fangzheng0451","Name":"方正市","Pinyin":"Fangzheng","Zip":"0451"},  
{"Details":"肥城Feicheng0538","Name":"肥城市","Pinyin":"Feicheng","Zip":"0538"},  
{"Details":"肥东Feidong0551","Name":"肥东市","Pinyin":"Feidong","Zip":"0551"},  
{"Details":"肥西Feixi0551","Name":"肥西市","Pinyin":"Feixi","Zip":"0551"},  
{"Details":"费县Feixian0539","Name":"费县市","Pinyin":"Feixian","Zip":"0539"},  
{"Details":"丰城Fengcheng0795","Name":"丰城市","Pinyin":"Fengcheng","Zip":"0795"},  
{"Details":"丰都Fengdu023","Name":"丰都市","Pinyin":"Fengdu","Zip":"023"},  
{"Details":"奉化Fenghua0574","Name":"奉化市","Pinyin":"Fenghua","Zip":"0574"},  
{"Details":"奉节Fengjie023","Name":"奉节市","Pinyin":"Fengjie","Zip":"023"},  
{"Details":"封开Fengkai0758","Name":"封开市","Pinyin":"Fengkai","Zip":"0758"},  
{"Details":"丰顺Fengshun0753","Name":"丰顺市","Pinyin":"Fengshun","Zip":"0753"},  
{"Details":"凤台Fengtai0554","Name":"凤台市","Pinyin":"Fengtai","Zip":"0554"},  
{"Details":"丰县Fengxian0516","Name":"丰县市","Pinyin":"Fengxian","Zip":"0516"},  
{"Details":"奉新Fengxin0795","Name":"奉新市","Pinyin":"Fengxin","Zip":"0795"},  
{"Details":"凤阳Fengyang0550","Name":"凤阳市","Pinyin":"Fengyang","Zip":"0550"},  
{"Details":"分宜Fenyi0790","Name":"分宜市","Pinyin":"Fenyi","Zip":"0790"},  
{"Details":"佛冈Fogang0763","Name":"佛冈市","Pinyin":"Fogang","Zip":"0763"},  
{"Details":"福安Fuan0593","Name":"福安市","Pinyin":"Fuan","Zip":"0593"},  
{"Details":"福鼎Fuding0593","Name":"福鼎市","Pinyin":"Fuding","Zip":"0593"},  
{"Details":"浮梁Fuliang0798","Name":"浮梁市","Pinyin":"Fuliang","Zip":"0798"},  
{"Details":"富民Fumin0871","Name":"富民市","Pinyin":"Fumin","Zip":"0871"},  
{"Details":"阜南Funan0558","Name":"阜南市","Pinyin":"Funan","Zip":"0558"},  
{"Details":"阜宁Funing0515","Name":"阜宁市","Pinyin":"Funing","Zip":"0515"},  
{"Details":"福清Fuqing0591","Name":"福清市","Pinyin":"Fuqing","Zip":"0591"},  
{"Details":"富阳Fuyang0571","Name":"富阳市","Pinyin":"Fuyang","Zip":"0571"},  
{"Details":"赣县Ganxian0797","Name":"赣县市","Pinyin":"Ganxian","Zip":"0797"},  
{"Details":"赣榆Ganyu0518","Name":"赣榆市","Pinyin":"Ganyu","Zip":"0518"},  
{"Details":"高安Gaoan0795","Name":"高安市","Pinyin":"Gaoan","Zip":"0795"},  
{"Details":"藁城Gaocheng0311","Name":"藁城市","Pinyin":"Gaocheng","Zip":"0311"},  
{"Details":"高淳Gaochun025","Name":"高淳市","Pinyin":"Gaochun","Zip":"025"},  
{"Details":"皋兰Gaolan0931","Name":"皋兰市","Pinyin":"Gaolan","Zip":"0931"},  
{"Details":"高陵Gaoling029","Name":"高陵市","Pinyin":"Gaoling","Zip":"029"},  
{"Details":"高密Gaomi0536","Name":"高密市","Pinyin":"Gaomi","Zip":"0536"},  
{"Details":"高青Gaoqing0533","Name":"高青市","Pinyin":"Gaoqing","Zip":"0533"},  
{"Details":"高唐Gaotang0635","Name":"高唐市","Pinyin":"Gaotang","Zip":"0635"},  
{"Details":"高要Gaoyao0758","Name":"高要市","Pinyin":"Gaoyao","Zip":"0758"},  
{"Details":"高邑Gaoyi0311","Name":"高邑市","Pinyin":"Gaoyi","Zip":"0311"},  
{"Details":"高邮Gaoyou0514","Name":"高邮市","Pinyin":"Gaoyou","Zip":"0514"},  
{"Details":"高州Gaozhou0668","Name":"高州市","Pinyin":"Gaozhou","Zip":"0668"},  
{"Details":"巩义Gongyi0371","Name":"巩义市","Pinyin":"Gongyi","Zip":"0371"},  
{"Details":"广昌Guangchang0794","Name":"广昌市","Pinyin":"Guangchang","Zip":"0794"},  
{"Details":"广德Guangde0563","Name":"广德市","Pinyin":"Guangde","Zip":"0563"},  
{"Details":"广丰Guangfeng0793","Name":"广丰市","Pinyin":"Guangfeng","Zip":"0793"},  
{"Details":"广宁Guangning0758","Name":"广宁市","Pinyin":"Guangning","Zip":"0758"},  
{"Details":"广饶Guangrao0546","Name":"广饶市","Pinyin":"Guangrao","Zip":"0546"},  
{"Details":"光泽Guangze0599","Name":"光泽市","Pinyin":"Guangze","Zip":"0599"},  
{"Details":"灌南Guannan0518","Name":"灌南市","Pinyin":"Guannan","Zip":"0518"},  
{"Details":"冠县Guanxian0635","Name":"冠县市","Pinyin":"Guanxian","Zip":"0635"},  
{"Details":"灌云Guanyun0518","Name":"灌云市","Pinyin":"Guanyun","Zip":"0518"},  
{"Details":"贵溪Guixi0701","Name":"贵溪市","Pinyin":"Guixi","Zip":"0701"},  
{"Details":"古田Gutian0593","Name":"古田市","Pinyin":"Gutian","Zip":"0593"},  
{"Details":"固镇Guzhen0552","Name":"固镇市","Pinyin":"Guzhen","Zip":"0552"},  
{"Details":"海安Haian0513","Name":"海安市","Pinyin":"Haian","Zip":"0513"},  
{"Details":"海丰Haifeng0660","Name":"海丰市","Pinyin":"Haifeng","Zip":"0660"},  
{"Details":"海门Haimen0513","Name":"海门市","Pinyin":"Haimen","Zip":"0513"},  
{"Details":"海宁Haining0573","Name":"海宁市","Pinyin":"Haining","Zip":"0573"},  
{"Details":"海盐Haiyan0573","Name":"海盐市","Pinyin":"Haiyan","Zip":"0573"},  
{"Details":"海阳Haiyang0535","Name":"海阳市","Pinyin":"Haiyang","Zip":"0535"},  
{"Details":"含山Hanshan0565","Name":"含山市","Pinyin":"Hanshan","Zip":"0565"},  
{"Details":"合川Hechuan023","Name":"合川市","Pinyin":"Hechuan","Zip":"023"},  
{"Details":"横峰Hengfeng0793","Name":"横峰市","Pinyin":"Hengfeng","Zip":"0793"},  
{"Details":"横县Hengxian0771","Name":"横县市","Pinyin":"Hengxian","Zip":"0771"},  
{"Details":"和平Heping0762","Name":"和平市","Pinyin":"Heping","Zip":"0762"},  
{"Details":"鹤山Heshan0750","Name":"鹤山市","Pinyin":"Heshan","Zip":"0750"},  
{"Details":"和县Hexian0565","Name":"和县市","Pinyin":"Hexian","Zip":"0565"},  
{"Details":"洪泽Hongze0517","Name":"洪泽市","Pinyin":"Hongze","Zip":"0517"},  
{"Details":"华安Huaan0596","Name":"华安市","Pinyin":"Huaan","Zip":"0596"},  
{"Details":"桦甸Huadian0423","Name":"桦甸市","Pinyin":"Huadian","Zip":"0423"},  
{"Details":"怀集Huaiji0758","Name":"怀集市","Pinyin":"Huaiji","Zip":"0758"},  
{"Details":"怀宁Huaining0556","Name":"怀宁市","Pinyin":"Huaining","Zip":"0556"},  
{"Details":"怀远Huaiyuan0552","Name":"怀远市","Pinyin":"Huaiyuan","Zip":"0552"},  
{"Details":"桓台Huantai0533","Name":"桓台市","Pinyin":"Huantai","Zip":"0533"},  
{"Details":"化州Huazhou0668","Name":"化州市","Pinyin":"Huazhou","Zip":"0668"},  
{"Details":"惠安Huian0595","Name":"惠安市","Pinyin":"Huian","Zip":"0595"},  
{"Details":"会昌Huichang0797","Name":"会昌市","Pinyin":"Huichang","Zip":"0797"},  
{"Details":"惠东Huidong0752","Name":"惠东市","Pinyin":"Huidong","Zip":"0752"},  
{"Details":"惠来Huilai0663","Name":"惠来市","Pinyin":"Huilai","Zip":"0663"},  
{"Details":"惠民Huimin0543","Name":"惠民市","Pinyin":"Huimin","Zip":"0543"},  
{"Details":"湖口Hukou0792","Name":"湖口市","Pinyin":"Hukou","Zip":"0792"},  
{"Details":"呼兰Hulan0451","Name":"呼兰市","Pinyin":"Hulan","Zip":"0451"},  
{"Details":"霍邱Huoqiu0564","Name":"霍邱市","Pinyin":"Huoqiu","Zip":"0564"},  
{"Details":"霍山Huoshan0564","Name":"霍山市","Pinyin":"Huoshan","Zip":"0564"},  
{"Details":"户县Huxian029","Name":"户县市","Pinyin":"Huxian","Zip":"029"},  
{"Details":"建德Jiande0571","Name":"建德市","Pinyin":"Jiande","Zip":"0571"},  
{"Details":"江都Jiangdu0514","Name":"江都市","Pinyin":"Jiangdu","Zip":"0514"},  
{"Details":"江津Jiangjin023","Name":"江津市","Pinyin":"Jiangjin","Zip":"023"},  
{"Details":"将乐Jiangle0598","Name":"将乐市","Pinyin":"Jiangle","Zip":"0598"},  
{"Details":"江山Jiangshan0570","Name":"江山市","Pinyin":"Jiangshan","Zip":"0570"},  
{"Details":"姜堰Jiangyan0523","Name":"姜堰市","Pinyin":"Jiangyan","Zip":"0523"},  
{"Details":"江阴Jiangyin0510","Name":"江阴市","Pinyin":"Jiangyin","Zip":"0510"},  
{"Details":"建湖Jianhu0515","Name":"建湖市","Pinyin":"Jianhu","Zip":"0515"},  
{"Details":"建宁Jianning0598","Name":"建宁市","Pinyin":"Jianning","Zip":"0598"},  
{"Details":"建瓯Jianou0599","Name":"建瓯市","Pinyin":"Jianou","Zip":"0599"},  
{"Details":"建阳Jianyang0599","Name":"建阳市","Pinyin":"Jianyang","Zip":"0599"},  
{"Details":"吉安Jian0796","Name":"吉安市","Pinyin":"Jian","Zip":"0796"},  
{"Details":"蛟河Jiaohe0423","Name":"蛟河市","Pinyin":"Jiaohe","Zip":"0423"},  
{"Details":"蕉岭Jiaoling0753","Name":"蕉岭市","Pinyin":"Jiaoling","Zip":"0753"},  
{"Details":"胶南Jiaonan0532","Name":"胶南市","Pinyin":"Jiaonan","Zip":"0532"},  
{"Details":"胶州Jiaozhou0532","Name":"胶州市","Pinyin":"Jiaozhou","Zip":"0532"},  
{"Details":"嘉善Jiashan0573","Name":"嘉善市","Pinyin":"Jiashan","Zip":"0573"},  
{"Details":"嘉祥Jiaxiang0537","Name":"嘉祥市","Pinyin":"Jiaxiang","Zip":"0537"},  
{"Details":"揭东Jiedong0663","Name":"揭东市","Pinyin":"Jiedong","Zip":"0663"},  
{"Details":"界首Jieshou0558","Name":"界首市","Pinyin":"Jieshou","Zip":"0558"},  
{"Details":"揭西Jiexi0663","Name":"揭西市","Pinyin":"Jiexi","Zip":"0663"},  
{"Details":"即墨Jimo0532","Name":"即墨市","Pinyin":"Jimo","Zip":"0532"},  
{"Details":"靖安Jingan0795","Name":"靖安市","Pinyin":"Jingan","Zip":"0795"},  
{"Details":"旌德Jingde0563","Name":"旌德市","Pinyin":"Jingde","Zip":"0563"},  
{"Details":"井冈山Jinggangshan0796","Name":"井冈山市","Pinyin":"Jinggangshan","Zip":"0796"},  
{"Details":"靖江Jingjiang0523","Name":"靖江市","Pinyin":"Jingjiang","Zip":"0523"},  
{"Details":"景宁Jingning0578","Name":"景宁市","Pinyin":"Jingning","Zip":"0578"},  
{"Details":"泾县Jingxian0563","Name":"泾县市","Pinyin":"Jingxian","Zip":"0563"},  
{"Details":"井陉Jingxing0311","Name":"井陉市","Pinyin":"Jingxing","Zip":"0311"},  
{"Details":"金湖Jinhu0517","Name":"金湖市","Pinyin":"Jinhu","Zip":"0517"},  
{"Details":"晋江Jinjiang0595","Name":"晋江市","Pinyin":"Jinjiang","Zip":"0595"},  
{"Details":"金门Jinmen0595","Name":"金门市","Pinyin":"Jinmen","Zip":"0595"},  
{"Details":"晋宁Jinning0871","Name":"晋宁市","Pinyin":"Jinning","Zip":"0871"},  
{"Details":"金坛Jintan0519","Name":"金坛市","Pinyin":"Jintan","Zip":"0519"},  
{"Details":"金堂Jintang028","Name":"金堂市","Pinyin":"Jintang","Zip":"028"},  
{"Details":"进贤Jinxian0791","Name":"进贤市","Pinyin":"Jinxian","Zip":"0791"},  
{"Details":"金溪Jinxi0794","Name":"金溪市","Pinyin":"Jinxi","Zip":"0794"},  
{"Details":"金乡Jinxiang0537","Name":"金乡市","Pinyin":"Jinxiang","Zip":"0537"},  
{"Details":"缙云Jinyun0578","Name":"缙云市","Pinyin":"Jinyun","Zip":"0578"},  
{"Details":"金寨Jinzhai0564","Name":"金寨市","Pinyin":"Jinzhai","Zip":"0564"},  
{"Details":"晋州Jinzhou0311","Name":"晋州市","Pinyin":"Jinzhou","Zip":"0311"},  
{"Details":"吉水Jishui0796","Name":"吉水市","Pinyin":"Jishui","Zip":"0796"},  
{"Details":"九江Jiujiang0792","Name":"九江市","Pinyin":"Jiujiang","Zip":"0792"},  
{"Details":"九台Jiutai0431","Name":"九台市","Pinyin":"Jiutai","Zip":"0431"},  
{"Details":"绩溪Jixi0563","Name":"绩溪市","Pinyin":"Jixi","Zip":"0563"},  
{"Details":"济阳Jiyang0531","Name":"济阳市","Pinyin":"Jiyang","Zip":"0531"},  
{"Details":"济源Jiyuan0391","Name":"济源市","Pinyin":"Jiyuan","Zip":"0391"},  
{"Details":"鄄城Juancheng0530","Name":"鄄城市","Pinyin":"Juancheng","Zip":"0530"},  
{"Details":"莒南Junan0539","Name":"莒南市","Pinyin":"Junan","Zip":"0539"},  
{"Details":"句容Jurong0511","Name":"句容市","Pinyin":"Jurong","Zip":"0511"},  
{"Details":"莒县Juxian0633","Name":"莒县市","Pinyin":"Juxian","Zip":"0633"},  
{"Details":"巨野Juye0530","Name":"巨野市","Pinyin":"Juye","Zip":"0530"},  
{"Details":"开化Kaihua0570","Name":"开化市","Pinyin":"Kaihua","Zip":"0570"},  
{"Details":"开平Kaiping0750","Name":"开平市","Pinyin":"Kaiping","Zip":"0750"},  
{"Details":"开县Kaixian023","Name":"开县市","Pinyin":"Kaixian","Zip":"023"},  
{"Details":"开阳Kaiyang0851","Name":"开阳市","Pinyin":"Kaiyang","Zip":"0851"},  
{"Details":"康平Kangping024","Name":"康平市","Pinyin":"Kangping","Zip":"024"},  
{"Details":"垦利Kenli0546","Name":"垦利市","Pinyin":"Kenli","Zip":"0546"},  
{"Details":"昆山Kunshan0512","Name":"昆山市","Pinyin":"Kunshan","Zip":"0512"},  
{"Details":"来安Laian0550","Name":"来安市","Pinyin":"Laian","Zip":"0550"},  
{"Details":"莱西Laixi0532","Name":"莱西市","Pinyin":"Laixi","Zip":"0532"},  
{"Details":"莱阳Laiyang0535","Name":"莱阳市","Pinyin":"Laiyang","Zip":"0535"},  
{"Details":"莱州Laizhou0535","Name":"莱州市","Pinyin":"Laizhou","Zip":"0535"},  
{"Details":"郎溪Langxi0563","Name":"郎溪市","Pinyin":"Langxi","Zip":"0563"},  
{"Details":"蓝田Lantian029","Name":"蓝田市","Pinyin":"Lantian","Zip":"029"},  
{"Details":"兰溪Lanxi0579","Name":"兰溪市","Pinyin":"Lanxi","Zip":"0579"},  
{"Details":"乐安Lean0794","Name":"乐安市","Pinyin":"Lean","Zip":"0794"},  
{"Details":"乐昌Lechang0751","Name":"乐昌市","Pinyin":"Lechang","Zip":"0751"},  
{"Details":"雷州Leizhou0759","Name":"雷州市","Pinyin":"Leizhou","Zip":"0759"},  
{"Details":"乐陵Leling0534","Name":"乐陵市","Pinyin":"Leling","Zip":"0534"},  
{"Details":"乐平Leping0798","Name":"乐平市","Pinyin":"Leping","Zip":"0798"},  
{"Details":"乐清Leqing0577","Name":"乐清市","Pinyin":"Leqing","Zip":"0577"},  
{"Details":"乐亭Leting0315","Name":"乐亭市","Pinyin":"Leting","Zip":"0315"},  
{"Details":"连城Liancheng0597","Name":"连城市","Pinyin":"Liancheng","Zip":"0597"},  
{"Details":"梁平Liangping023","Name":"梁平市","Pinyin":"Liangping","Zip":"023"},  
{"Details":"梁山Liangshan0537","Name":"梁山市","Pinyin":"Liangshan","Zip":"0537"},  
{"Details":"莲花Lianhua0799","Name":"莲花市","Pinyin":"Lianhua","Zip":"0799"},  
{"Details":"连江Lianjiang0591","Name":"连江市","Pinyin":"Lianjiang","Zip":"0591"},  
{"Details":"廉江Lianjiang0759","Name":"廉江市","Pinyin":"Lianjiang","Zip":"0759"},  
{"Details":"连南Liannan0763","Name":"连南市","Pinyin":"Liannan","Zip":"0763"},  
{"Details":"连平Lianping0762","Name":"连平市","Pinyin":"Lianping","Zip":"0762"},  
{"Details":"连山Lianshan0763","Name":"连山市","Pinyin":"Lianshan","Zip":"0763"},  
{"Details":"涟水Lianshui0517","Name":"涟水市","Pinyin":"Lianshui","Zip":"0517"},  
{"Details":"连州Lianzhou0763","Name":"连州市","Pinyin":"Lianzhou","Zip":"0763"},  
{"Details":"辽中Liaozhong024","Name":"辽中市","Pinyin":"Liaozhong","Zip":"024"},  
{"Details":"黎川Lichuan0794","Name":"黎川市","Pinyin":"Lichuan","Zip":"0794"},  
{"Details":"利津Lijin0546","Name":"利津市","Pinyin":"Lijin","Zip":"0546"},  
{"Details":"临安Linan0571","Name":"临安市","Pinyin":"Linan","Zip":"0571"},  
{"Details":"灵璧Lingbi0557","Name":"灵璧市","Pinyin":"Lingbi","Zip":"0557"},  
{"Details":"灵寿Lingshou0311","Name":"灵寿市","Pinyin":"Lingshou","Zip":"0311"},  
{"Details":"陵县Lingxian0534","Name":"陵县市","Pinyin":"Lingxian","Zip":"0534"},  
{"Details":"临海Linhai0576","Name":"临海市","Pinyin":"Linhai","Zip":"0576"},  
{"Details":"临清Linqing0635","Name":"临清市","Pinyin":"Linqing","Zip":"0635"},  
{"Details":"临泉Linquan0558","Name":"临泉市","Pinyin":"Linquan","Zip":"0558"},  
{"Details":"临朐Linqu0536","Name":"临朐市","Pinyin":"Linqu","Zip":"0536"},  
{"Details":"临沭Linshu0539","Name":"临沭市","Pinyin":"Linshu","Zip":"0539"},  
{"Details":"临邑Linyi0534","Name":"临邑市","Pinyin":"Linyi","Zip":"0534"},  
{"Details":"溧水Lishui025","Name":"溧水市","Pinyin":"Lishui","Zip":"025"},  
{"Details":"柳城Liucheng0772","Name":"柳城市","Pinyin":"Liucheng","Zip":"0772"},  
{"Details":"柳江Liujiang0772","Name":"柳江市","Pinyin":"Liujiang","Zip":"0772"},  
{"Details":"浏阳Liuyang0731","Name":"浏阳市","Pinyin":"Liuyang","Zip":"0731"},  
{"Details":"利辛Lixin0558","Name":"利辛市","Pinyin":"Lixin","Zip":"0558"},  
{"Details":"溧阳Liyang0519","Name":"溧阳市","Pinyin":"Liyang","Zip":"0519"},  
{"Details":"隆安Longan0771","Name":"隆安市","Pinyin":"Longan","Zip":"0771"},  
{"Details":"龙川Longchuan0762","Name":"龙川市","Pinyin":"Longchuan","Zip":"0762"},  
{"Details":"龙海Longhai0596","Name":"龙海市","Pinyin":"Longhai","Zip":"0596"},  
{"Details":"龙口Longkou0535","Name":"龙口市","Pinyin":"Longkou","Zip":"0535"},  
{"Details":"龙门Longmen0752","Name":"龙门市","Pinyin":"Longmen","Zip":"0752"},  
{"Details":"龙南Longnan0797","Name":"龙南市","Pinyin":"Longnan","Zip":"0797"},  
{"Details":"龙泉Longquan0578","Name":"龙泉市","Pinyin":"Longquan","Zip":"0578"},  
{"Details":"龙游Longyou0570","Name":"龙游市","Pinyin":"Longyou","Zip":"0570"},  
{"Details":"栾城Luancheng0311","Name":"栾城市","Pinyin":"Luancheng","Zip":"0311"},  
{"Details":"栾川Luanchuan0379","Name":"栾川市","Pinyin":"Luanchuan","Zip":"0379"},  
{"Details":"滦南Luannan0315","Name":"滦南市","Pinyin":"Luannan","Zip":"0315"},  
{"Details":"滦县Luanxian0315","Name":"滦县市","Pinyin":"Luanxian","Zip":"0315"},  
{"Details":"陆丰Lufeng0660","Name":"陆丰市","Pinyin":"Lufeng","Zip":"0660"},  
{"Details":"陆河Luhe0660","Name":"陆河市","Pinyin":"Luhe","Zip":"0660"},  
{"Details":"庐江Lujiang0565","Name":"庐江市","Pinyin":"Lujiang","Zip":"0565"},  
{"Details":"罗定Luoding0766","Name":"罗定市","Pinyin":"Luoding","Zip":"0766"},  
{"Details":"洛宁Luoning0379","Name":"洛宁市","Pinyin":"Luoning","Zip":"0379"},  
{"Details":"罗源Luoyuan0591","Name":"罗源市","Pinyin":"Luoyuan","Zip":"0591"},  
{"Details":"鹿泉Luquan0311","Name":"鹿泉市","Pinyin":"Luquan","Zip":"0311"},  
{"Details":"禄劝Luquan0871","Name":"禄劝市","Pinyin":"Luquan","Zip":"0871"},  
{"Details":"芦溪Luxi0799","Name":"芦溪市","Pinyin":"Luxi","Zip":"0799"},  
{"Details":"鹿寨Luzhai0772","Name":"鹿寨市","Pinyin":"Luzhai","Zip":"0772"},  
{"Details":"马山Mashan0771","Name":"马山市","Pinyin":"Mashan","Zip":"0771"},  
{"Details":"梅县Meixian0753","Name":"梅县市","Pinyin":"Meixian","Zip":"0753"},  
{"Details":"蒙城Mengcheng0558","Name":"蒙城市","Pinyin":"Mengcheng","Zip":"0558"},  
{"Details":"孟津Mengjin0379","Name":"孟津市","Pinyin":"Mengjin","Zip":"0379"},  
{"Details":"蒙阴Mengyin0539","Name":"蒙阴市","Pinyin":"Mengyin","Zip":"0539"},  
{"Details":"孟州Mengzhou0391","Name":"孟州市","Pinyin":"Mengzhou","Zip":"0391"},  
{"Details":"明光Mingguang0550","Name":"明光市","Pinyin":"Mingguang","Zip":"0550"},  
{"Details":"明溪Mingxi0598","Name":"明溪市","Pinyin":"Mingxi","Zip":"0598"},  
{"Details":"闽侯Minhou0591","Name":"闽侯市","Pinyin":"Minhou","Zip":"0591"},  
{"Details":"闽清Minqing0591","Name":"闽清市","Pinyin":"Minqing","Zip":"0591"},  
{"Details":"木兰Mulan0451","Name":"木兰市","Pinyin":"Mulan","Zip":"0451"},  
{"Details":"南安Nanan0595","Name":"南安市","Pinyin":"Nanan","Zip":"0595"},  
{"Details":"南澳Nanao0754","Name":"南澳市","Pinyin":"Nanao","Zip":"0754"},  
{"Details":"南城Nancheng0794","Name":"南城市","Pinyin":"Nancheng","Zip":"0794"},  
{"Details":"南川Nanchuan023","Name":"南川市","Pinyin":"Nanchuan","Zip":"023"},  
{"Details":"南丰Nanfeng0794","Name":"南丰市","Pinyin":"Nanfeng","Zip":"0794"},  
{"Details":"南靖Nanjing0596","Name":"南靖市","Pinyin":"Nanjing","Zip":"0596"},  
{"Details":"南康Nankang0797","Name":"南康市","Pinyin":"Nankang","Zip":"0797"},  
{"Details":"南陵Nanling0553","Name":"南陵市","Pinyin":"Nanling","Zip":"0553"},  
{"Details":"南雄Nanxiong0751","Name":"南雄市","Pinyin":"Nanxiong","Zip":"0751"},  
{"Details":"宁都Ningdu0797","Name":"宁都市","Pinyin":"Ningdu","Zip":"0797"},  
{"Details":"宁国Ningguo0563","Name":"宁国市","Pinyin":"Ningguo","Zip":"0563"},  
{"Details":"宁海Ninghai0574","Name":"宁海市","Pinyin":"Ninghai","Zip":"0574"},  
{"Details":"宁化Ninghua0598","Name":"宁化市","Pinyin":"Ninghua","Zip":"0598"},  
{"Details":"宁津Ningjin0534","Name":"宁津市","Pinyin":"Ningjin","Zip":"0534"},  
{"Details":"宁乡Ningxiang0731","Name":"宁乡市","Pinyin":"Ningxiang","Zip":"0731"},  
{"Details":"宁阳Ningyang0538","Name":"宁阳市","Pinyin":"Ningyang","Zip":"0538"},  
{"Details":"农安Nongan0431","Name":"农安市","Pinyin":"Nongan","Zip":"0431"},  
{"Details":"磐安Panan0579","Name":"磐安市","Pinyin":"Panan","Zip":"0579"},  
{"Details":"磐石Panshi0423","Name":"磐石市","Pinyin":"Panshi","Zip":"0423"},  
{"Details":"沛县Peixian0516","Name":"沛县市","Pinyin":"Peixian","Zip":"0516"},  
{"Details":"蓬莱Penglai0535","Name":"蓬莱市","Pinyin":"Penglai","Zip":"0535"},  
{"Details":"彭水Pengshui023","Name":"彭水市","Pinyin":"Pengshui","Zip":"023"},  
{"Details":"彭泽Pengze0792","Name":"彭泽市","Pinyin":"Pengze","Zip":"0792"},  
{"Details":"彭州Pengzhou028","Name":"彭州市","Pinyin":"Pengzhou","Zip":"028"},  
{"Details":"平度Pingdu0532","Name":"平度市","Pinyin":"Pingdu","Zip":"0532"},  
{"Details":"平和Pinghe0596","Name":"平和市","Pinyin":"Pinghe","Zip":"0596"},  
{"Details":"平湖Pinghu0573","Name":"平湖市","Pinyin":"Pinghu","Zip":"0573"},  
{"Details":"屏南Pingnan0593","Name":"屏南市","Pinyin":"Pingnan","Zip":"0593"},  
{"Details":"平山Pingshan0311","Name":"平山市","Pinyin":"Pingshan","Zip":"0311"},  
{"Details":"平潭Pingtan0591","Name":"平潭市","Pinyin":"Pingtan","Zip":"0591"},  
{"Details":"平阳Pingyang0577","Name":"平阳市","Pinyin":"Pingyang","Zip":"0577"},  
{"Details":"平阴Pingyin0531","Name":"平阴市","Pinyin":"Pingyin","Zip":"0531"},  
{"Details":"平邑Pingyi0539","Name":"平邑市","Pinyin":"Pingyi","Zip":"0539"},  
{"Details":"平原Pingyuan0534","Name":"平原市","Pinyin":"Pingyuan","Zip":"0534"},  
{"Details":"平远Pingyuan0753","Name":"平远市","Pinyin":"Pingyuan","Zip":"0753"},  
{"Details":"郫县Pixian028","Name":"郫县","Pinyin":"Pixian","Zip":"028"},  
{"Details":"邳州Pizhou0516","Name":"邳州市","Pinyin":"Pizhou","Zip":"0516"},  
{"Details":"鄱阳Poyang0793","Name":"鄱阳市","Pinyin":"Poyang","Zip":"0793"},  
{"Details":"浦城Pucheng0599","Name":"浦城市","Pinyin":"Pucheng","Zip":"0599"},  
{"Details":"浦江Pujiang0579","Name":"浦江市","Pinyin":"Pujiang","Zip":"0579"},  
{"Details":"蒲江Pujiang028","Name":"蒲江市","Pinyin":"Pujiang","Zip":"028"},  
{"Details":"普兰店Pulandian0411","Name":"普兰店市","Pinyin":"Pulandian","Zip":"0411"},  
{"Details":"普宁Puning0663","Name":"普宁市","Pinyin":"Puning","Zip":"0663"},  
{"Details":"迁安Qianan0315","Name":"迁安市","Pinyin":"Qianan","Zip":"0315"},  
{"Details":"潜山Qianshan0556","Name":"潜山市","Pinyin":"Qianshan","Zip":"0556"},  
{"Details":"铅山Qianshan0793","Name":"铅山市","Pinyin":"Qianshan","Zip":"0793"},  
{"Details":"迁西Qianxi0315","Name":"迁西市","Pinyin":"Qianxi","Zip":"0315"},  
{"Details":"启东Qidong0513","Name":"启东市","Pinyin":"Qidong","Zip":"0513"},  
{"Details":"齐河Qihe0534","Name":"齐河市","Pinyin":"Qihe","Zip":"0534"},  
{"Details":"綦江Qijiang023","Name":"綦江市","Pinyin":"Qijiang","Zip":"023"},  
{"Details":"祁门Qimen0559","Name":"祁门市","Pinyin":"Qimen","Zip":"0559"},  
{"Details":"清流Qingliu0598","Name":"清流市","Pinyin":"Qingliu","Zip":"0598"},  
{"Details":"青田Qingtian0578","Name":"青田市","Pinyin":"Qingtian","Zip":"0578"},  
{"Details":"清新Qingxin0763","Name":"清新市","Pinyin":"Qingxin","Zip":"0763"},  
{"Details":"青阳Qingyang0566","Name":"青阳市","Pinyin":"Qingyang","Zip":"0566"},  
{"Details":"庆元Qingyuan0578","Name":"庆元市","Pinyin":"Qingyuan","Zip":"0578"},  
{"Details":"庆云Qingyun0534","Name":"庆云市","Pinyin":"Qingyun","Zip":"0534"},  
{"Details":"清镇Qingzhen0851","Name":"清镇市","Pinyin":"Qingzhen","Zip":"0851"},  
{"Details":"青州Qingzhou0536","Name":"青州市","Pinyin":"Qingzhou","Zip":"0536"},  
{"Details":"沁阳Qinyang0391","Name":"沁阳市","Pinyin":"Qinyang","Zip":"0391"},  
{"Details":"邛崃Qionglai028","Name":"邛崃市","Pinyin":"Qionglai","Zip":"028"},  
{"Details":"栖霞Qixia0535","Name":"栖霞市","Pinyin":"Qixia","Zip":"0535"},  
{"Details":"全椒Quanjiao0550","Name":"全椒市","Pinyin":"Quanjiao","Zip":"0550"},  
{"Details":"全南Quannan0797","Name":"全南市","Pinyin":"Quannan","Zip":"0797"},  
{"Details":"曲阜Qufu0537","Name":"曲阜市","Pinyin":"Qufu","Zip":"0537"},  
{"Details":"曲江Qujiang0751","Name":"曲江市","Pinyin":"Qujiang","Zip":"0751"},  
{"Details":"饶平Raoping0768","Name":"饶平市","Pinyin":"Raoping","Zip":"0768"},  
{"Details":"仁化Renhua0751","Name":"仁化市","Pinyin":"Renhua","Zip":"0751"},  
{"Details":"融安Rongan0772","Name":"融安市","Pinyin":"Rongan","Zip":"0772"},  
{"Details":"荣昌Rongchang023","Name":"荣昌市","Pinyin":"Rongchang","Zip":"023"},  
{"Details":"荣成Rongcheng0631","Name":"荣成市","Pinyin":"Rongcheng","Zip":"0631"},  
{"Details":"融水Rongshui0772","Name":"融水市","Pinyin":"Rongshui","Zip":"0772"},  
{"Details":"如东Rudong0513","Name":"如东市","Pinyin":"Rudong","Zip":"0513"},  
{"Details":"如皋Rugao0513","Name":"如皋市","Pinyin":"Rugao","Zip":"0513"},  
{"Details":"瑞安Ruian0577","Name":"瑞安市","Pinyin":"Ruian","Zip":"0577"},  
{"Details":"瑞昌Ruichang0792","Name":"瑞昌市","Pinyin":"Ruichang","Zip":"0792"},  
{"Details":"瑞金Ruijin0797","Name":"瑞金市","Pinyin":"Ruijin","Zip":"0797"},  
{"Details":"乳山Rushan0631","Name":"乳山市","Pinyin":"Rushan","Zip":"0631"},  
{"Details":"汝阳Ruyang0379","Name":"汝阳市","Pinyin":"Ruyang","Zip":"0379"},  
{"Details":"乳源Ruyuan0751","Name":"乳源市","Pinyin":"Ruyuan","Zip":"0751"},  
{"Details":"三江Sanjiang0772","Name":"三江市","Pinyin":"Sanjiang","Zip":"0772"},  
{"Details":"三门Sanmen0576","Name":"三门市","Pinyin":"Sanmen","Zip":"0576"},  
{"Details":"诏安Saoan0596","Name":"诏安市","Pinyin":"Saoan","Zip":"0596"},  
{"Details":"上高Shanggao0795","Name":"上高市","Pinyin":"Shanggao","Zip":"0795"},  
{"Details":"上杭Shanghang0597","Name":"上杭市","Pinyin":"Shanghang","Zip":"0597"},  
{"Details":"商河Shanghe0531","Name":"商河市","Pinyin":"Shanghe","Zip":"0531"},  
{"Details":"上栗Shangli0799","Name":"上栗市","Pinyin":"Shangli","Zip":"0799"},  
{"Details":"上林Shanglin0771","Name":"上林市","Pinyin":"Shanglin","Zip":"0771"},  
{"Details":"上饶Shangrao0793","Name":"上饶市","Pinyin":"Shangrao","Zip":"0793"},  
{"Details":"上犹Shangyou0797","Name":"上犹市","Pinyin":"Shangyou","Zip":"0797"},  
{"Details":"上虞Shangyu0575","Name":"上虞市","Pinyin":"Shangyu","Zip":"0575"},  
{"Details":"尚志Shangzhi0451","Name":"尚志市","Pinyin":"Shangzhi","Zip":"0451"},  
{"Details":"邵武Shaowu0599","Name":"邵武市","Pinyin":"Shaowu","Zip":"0599"},  
{"Details":"绍兴Shaoxing0575","Name":"绍兴市","Pinyin":"Shaoxing","Zip":"0575"},  
{"Details":"沙县Shaxian0598","Name":"沙县市","Pinyin":"Shaxian","Zip":"0598"},  
{"Details":"嵊泗Shengsi0580","Name":"嵊泗市","Pinyin":"Shengsi","Zip":"0580"},  
{"Details":"嵊州Shengzhou0575","Name":"嵊州市","Pinyin":"Shengzhou","Zip":"0575"},  
{"Details":"莘县Shenxian0635","Name":"莘县市","Pinyin":"Shenxian","Zip":"0635"},  
{"Details":"深泽Shenze0311","Name":"深泽市","Pinyin":"Shenze","Zip":"0311"},  
{"Details":"歙县Shexian0559","Name":"歙县市","Pinyin":"Shexian","Zip":"0559"},  
{"Details":"射阳Sheyang0515","Name":"射阳市","Pinyin":"Sheyang","Zip":"0515"},  
{"Details":"石城Shicheng0797","Name":"石城市","Pinyin":"Shicheng","Zip":"0797"},  
{"Details":"石林Shilin0871","Name":"石林市","Pinyin":"Shilin","Zip":"0871"},  
{"Details":"石狮Shishi0595","Name":"石狮市","Pinyin":"Shishi","Zip":"0595"},  
{"Details":"石台Shitai0566","Name":"石台市","Pinyin":"Shitai","Zip":"0566"},  
{"Details":"始兴Shixing0751","Name":"始兴市","Pinyin":"Shixing","Zip":"0751"},  
{"Details":"石柱Shizhu023","Name":"石柱市","Pinyin":"Shizhu","Zip":"023"},  
{"Details":"寿光Shouguang0536","Name":"寿光市","Pinyin":"Shouguang","Zip":"0536"},  
{"Details":"寿宁Shouning0593","Name":"寿宁市","Pinyin":"Shouning","Zip":"0593"},  
{"Details":"寿县Shouxian0564","Name":"寿县市","Pinyin":"Shouxian","Zip":"0564"},  
{"Details":"双城Shuangcheng0451","Name":"双城市","Pinyin":"Shuangcheng","Zip":"0451"},  
{"Details":"双流Shuangliu028","Name":"双流市","Pinyin":"Shuangliu","Zip":"028"},  
{"Details":"舒城Shucheng0564","Name":"舒城市","Pinyin":"Shucheng","Zip":"0564"},  
{"Details":"舒兰Shulan0423","Name":"舒兰市","Pinyin":"Shulan","Zip":"0423"},  
{"Details":"顺昌Shunchang0599","Name":"顺昌市","Pinyin":"Shunchang","Zip":"0599"},  
{"Details":"沭阳Shuyang0527","Name":"沭阳市","Pinyin":"Shuyang","Zip":"0527"},  
{"Details":"泗洪Sihong0527","Name":"泗洪市","Pinyin":"Sihong","Zip":"0527"},  
{"Details":"四会Sihui0758","Name":"四会市","Pinyin":"Sihui","Zip":"0758"},  
{"Details":"泗水Sishui0537","Name":"泗水市","Pinyin":"Sishui","Zip":"0537"},  
{"Details":"泗县Sixian0557","Name":"泗县市","Pinyin":"Sixian","Zip":"0557"},  
{"Details":"泗阳Siyang0527","Name":"泗阳市","Pinyin":"Siyang","Zip":"0527"},  
{"Details":"嵩明Songming0871","Name":"嵩明市","Pinyin":"Songming","Zip":"0871"},  
{"Details":"松溪Songxi0599","Name":"松溪市","Pinyin":"Songxi","Zip":"0599"},  
{"Details":"嵩县Songxian0379","Name":"嵩县市","Pinyin":"Songxian","Zip":"0379"},  
{"Details":"松阳Songyang0578","Name":"松阳市","Pinyin":"Songyang","Zip":"0578"},  
{"Details":"遂昌Suichang0578","Name":"遂昌市","Pinyin":"Suichang","Zip":"0578"},  
{"Details":"遂川Suichuan0796","Name":"遂川市","Pinyin":"Suichuan","Zip":"0796"},  
{"Details":"睢宁Suining0516","Name":"睢宁市","Pinyin":"Suining","Zip":"0516"},  
{"Details":"濉溪Suixi0561","Name":"濉溪市","Pinyin":"Suixi","Zip":"0561"},  
{"Details":"遂溪Suixi0759","Name":"遂溪市","Pinyin":"Suixi","Zip":"0759"},  
{"Details":"宿松Susong0556","Name":"宿松市","Pinyin":"Susong","Zip":"0556"},  
{"Details":"宿豫Suyu0527","Name":"宿豫市","Pinyin":"Suyu","Zip":"0527"},  
{"Details":"太仓Taicang0512","Name":"太仓市","Pinyin":"Taicang","Zip":"0512"},  
{"Details":"太和Taihe0558","Name":"太和市","Pinyin":"Taihe","Zip":"0558"},  
{"Details":"泰和Taihe0796","Name":"泰和市","Pinyin":"Taihe","Zip":"0796"},  
{"Details":"太湖Taihu0556","Name":"太湖市","Pinyin":"Taihu","Zip":"0556"},  
{"Details":"泰宁Taining0598","Name":"泰宁市","Pinyin":"Taining","Zip":"0598"},  
{"Details":"台山Taishan0750","Name":"台山市","Pinyin":"Taishan","Zip":"0750"},  
{"Details":"泰顺Taishun0577","Name":"泰顺市","Pinyin":"Taishun","Zip":"0577"},  
{"Details":"泰兴Taixing0523","Name":"泰兴市","Pinyin":"Taixing","Zip":"0523"},  
{"Details":"郯城Tancheng0539","Name":"郯城市","Pinyin":"Tancheng","Zip":"0539"},  
{"Details":"唐海Tanghai0315","Name":"唐海市","Pinyin":"Tanghai","Zip":"0315"},  
{"Details":"滕州Tengzhou0623","Name":"滕州市","Pinyin":"Tengzhou","Zip":"0623"},  
{"Details":"天长Tianchang0550","Name":"天长市","Pinyin":"Tianchang","Zip":"0550"},  
{"Details":"天台Tiantai0576","Name":"天台市","Pinyin":"Tiantai","Zip":"0576"},  
{"Details":"桐城Tongcheng0556","Name":"桐城市","Pinyin":"Tongcheng","Zip":"0556"},  
{"Details":"铜鼓Tonggu0795","Name":"铜鼓市","Pinyin":"Tonggu","Zip":"0795"},  
{"Details":"通河Tonghe0451","Name":"通河市","Pinyin":"Tonghe","Zip":"0451"},  
{"Details":"铜梁Tongliang023","Name":"铜梁市","Pinyin":"Tongliang","Zip":"023"},  
{"Details":"铜陵Tongling0562","Name":"铜陵市","Pinyin":"Tongling","Zip":"0562"},  
{"Details":"桐庐Tonglu0571","Name":"桐庐市","Pinyin":"Tonglu","Zip":"0571"},  
{"Details":"潼南Tongnan023","Name":"潼南市","Pinyin":"Tongnan","Zip":"023"},  
{"Details":"铜山Tongshan0516","Name":"铜山市","Pinyin":"Tongshan","Zip":"0516"},  
{"Details":"桐乡Tongxiang0573","Name":"桐乡市","Pinyin":"Tongxiang","Zip":"0573"},  
{"Details":"通州Tongzhou0513","Name":"通州市","Pinyin":"Tongzhou","Zip":"0513"},  
{"Details":"瓦房店Wafangdian0411","Name":"瓦房店市","Pinyin":"Wafangdian","Zip":"0411"},  
{"Details":"万安Wanan0796","Name":"万安市","Pinyin":"Wanan","Zip":"0796"},  
{"Details":"望城Wangcheng0731","Name":"望城市","Pinyin":"Wangcheng","Zip":"0731"},  
{"Details":"望江Wangjiang0556","Name":"望江市","Pinyin":"Wangjiang","Zip":"0556"},  
{"Details":"万年Wannian0793","Name":"万年市","Pinyin":"Wannian","Zip":"0793"},  
{"Details":"万载Wanzai0795","Name":"万载市","Pinyin":"Wanzai","Zip":"0795"},  
{"Details":"微山Weishan0537","Name":"微山市","Pinyin":"Weishan","Zip":"0537"},  
{"Details":"文成Wencheng0577","Name":"文成市","Pinyin":"Wencheng","Zip":"0577"},  
{"Details":"文登Wendeng0631","Name":"文登市","Pinyin":"Wendeng","Zip":"0631"},  
{"Details":"翁源Wengyuan0751","Name":"翁源市","Pinyin":"Wengyuan","Zip":"0751"},  
{"Details":"温岭Wenling0576","Name":"温岭市","Pinyin":"Wenling","Zip":"0576"},  
{"Details":"汶上Wenshang0537","Name":"汶上市","Pinyin":"Wenshang","Zip":"0537"},  
{"Details":"温县Wenxian0391","Name":"温县市","Pinyin":"Wenxian","Zip":"0391"},  
{"Details":"涡阳Woyang0558","Name":"涡阳市","Pinyin":"Woyang","Zip":"0558"},  
{"Details":"五常Wuchang0451","Name":"五常市","Pinyin":"Wuchang","Zip":"0451"},  
{"Details":"武城Wucheng0534","Name":"武城市","Pinyin":"Wucheng","Zip":"0534"},  
{"Details":"吴川Wuchuan0759","Name":"吴川市","Pinyin":"Wuchuan","Zip":"0759"},  
{"Details":"无棣Wudi0543","Name":"无棣市","Pinyin":"Wudi","Zip":"0543"},  
{"Details":"五河Wuhe0552","Name":"五河市","Pinyin":"Wuhe","Zip":"0552"},  
{"Details":"芜湖Wuhu0553","Name":"芜湖市","Pinyin":"Wuhu","Zip":"0553"},  
{"Details":"五华Wuhua0753","Name":"五华市","Pinyin":"Wuhua","Zip":"0753"},  
{"Details":"无极Wuji0311","Name":"无极市","Pinyin":"Wuji","Zip":"0311"},  
{"Details":"吴江Wujiang0512","Name":"吴江市","Pinyin":"Wujiang","Zip":"0512"},  
{"Details":"五莲Wulian0633","Name":"五莲市","Pinyin":"Wulian","Zip":"0633"},  
{"Details":"武隆Wulong023","Name":"武隆市","Pinyin":"Wulong","Zip":"023"},  
{"Details":"武鸣Wuming0771","Name":"武鸣市","Pinyin":"Wuming","Zip":"0771"},  
{"Details":"武宁Wuning0792","Name":"武宁市","Pinyin":"Wuning","Zip":"0792"},  
{"Details":"武平Wuping0597","Name":"武平市","Pinyin":"Wuping","Zip":"0597"},  
{"Details":"巫山Wushan023","Name":"巫山市","Pinyin":"Wushan","Zip":"023"},  
{"Details":"无为Wuwei0565","Name":"无为市","Pinyin":"Wuwei","Zip":"0565"},  
{"Details":"巫溪Wuxi023","Name":"巫溪市","Pinyin":"Wuxi","Zip":"023"},  
{"Details":"武义Wuyi0579","Name":"武义市","Pinyin":"Wuyi","Zip":"0579"},  
{"Details":"武夷山Wuyishan0599","Name":"武夷山市","Pinyin":"Wuyishan","Zip":"0599"},  
{"Details":"婺源Wuyuan0793","Name":"婺源市","Pinyin":"Wuyuan","Zip":"0793"},  
{"Details":"武陟Wuzhi0391","Name":"武陟市","Pinyin":"Wuzhi","Zip":"0391"},  
{"Details":"峡江Xiajiang0796","Name":"峡江市","Pinyin":"Xiajiang","Zip":"0796"},  
{"Details":"夏津Xiajin0534","Name":"夏津市","Pinyin":"Xiajin","Zip":"0534"},  
{"Details":"象山Xiangshan0574","Name":"象山市","Pinyin":"Xiangshan","Zip":"0574"},  
{"Details":"响水Xiangshui0515","Name":"响水市","Pinyin":"Xiangshui","Zip":"0515"},  
{"Details":"仙居Xianju0576","Name":"仙居市","Pinyin":"Xianju","Zip":"0576"},  
{"Details":"仙游Xianyou0594","Name":"仙游市","Pinyin":"Xianyou","Zip":"0594"},  
{"Details":"萧县Xiaoxian0557","Name":"萧县市","Pinyin":"Xiaoxian","Zip":"0557"},  
{"Details":"霞浦Xiapu0593","Name":"霞浦市","Pinyin":"Xiapu","Zip":"0593"},  
{"Details":"息烽Xifeng0851","Name":"息烽市","Pinyin":"Xifeng","Zip":"0851"},  
{"Details":"新安Xinan0379","Name":"新安市","Pinyin":"Xinan","Zip":"0379"},  
{"Details":"新昌Xinchang0575","Name":"新昌市","Pinyin":"Xinchang","Zip":"0575"},  
{"Details":"信丰Xinfeng0797","Name":"信丰市","Pinyin":"Xinfeng","Zip":"0797"},  
{"Details":"新丰Xinfeng0751","Name":"新丰市","Pinyin":"Xinfeng","Zip":"0751"},  
{"Details":"新干Xingan0796","Name":"新干市","Pinyin":"Xingan","Zip":"0796"},  
{"Details":"兴国Xingguo0797","Name":"兴国市","Pinyin":"Xingguo","Zip":"0797"},  
{"Details":"兴化Xinghua0523","Name":"兴化市","Pinyin":"Xinghua","Zip":"0523"},  
{"Details":"兴宁Xingning0753","Name":"兴宁市","Pinyin":"Xingning","Zip":"0753"},  
{"Details":"行唐Xingtang0311","Name":"行唐市","Pinyin":"Xingtang","Zip":"0311"},  
{"Details":"荥阳Xingyang0371","Name":"荥阳市","Pinyin":"Xingyang","Zip":"0371"},  
{"Details":"星子Xingzi0792","Name":"星子市","Pinyin":"Xingzi","Zip":"0792"},  
{"Details":"辛集Xinji0311","Name":"辛集市","Pinyin":"Xinji","Zip":"0311"},  
{"Details":"新建Xinjian0791","Name":"新建市","Pinyin":"Xinjian","Zip":"0791"},  
{"Details":"新津Xinjin028","Name":"新津市","Pinyin":"Xinjin","Zip":"028"},  
{"Details":"新乐Xinle0311","Name":"新乐市","Pinyin":"Xinle","Zip":"0311"},  
{"Details":"新民Xinmin024","Name":"新民市","Pinyin":"Xinmin","Zip":"024"},  
{"Details":"新密Xinmi0371","Name":"新密市","Pinyin":"Xinmi","Zip":"0371"},  
{"Details":"新泰Xintai0538","Name":"新泰市","Pinyin":"Xintai","Zip":"0538"},  
{"Details":"新兴Xinxing0766","Name":"新兴市","Pinyin":"Xinxing","Zip":"0766"},  
{"Details":"新沂Xinyi0516","Name":"新沂市","Pinyin":"Xinyi","Zip":"0516"},  
{"Details":"信宜Xinyi0668","Name":"信宜市","Pinyin":"Xinyi","Zip":"0668"},  
{"Details":"新郑Xinzheng0371","Name":"新郑市","Pinyin":"Xinzheng","Zip":"0371"},  
{"Details":"休宁Xiuning0559","Name":"休宁市","Pinyin":"Xiuning","Zip":"0559"},  
{"Details":"秀山Xiushan023","Name":"秀山市","Pinyin":"Xiushan","Zip":"023"},  
{"Details":"修水Xiushui0792","Name":"修水市","Pinyin":"Xiushui","Zip":"0792"},  
{"Details":"修文Xiuwen0851","Name":"修文市","Pinyin":"Xiuwen","Zip":"0851"},  
{"Details":"修武Xiuwu0391","Name":"修武市","Pinyin":"Xiuwu","Zip":"0391"},  
{"Details":"寻甸Xundian0871","Name":"寻甸市","Pinyin":"Xundian","Zip":"0871"},  
{"Details":"寻乌Xunwu0797","Name":"寻乌市","Pinyin":"Xunwu","Zip":"0797"},  
{"Details":"徐闻Xuwen0759","Name":"徐闻市","Pinyin":"Xuwen","Zip":"0759"},  
{"Details":"盱眙Xuyi0517","Name":"盱眙市","Pinyin":"Xuyi","Zip":"0517"},  
{"Details":"阳春Yangchun0662","Name":"阳春市","Pinyin":"Yangchun","Zip":"0662"},  
{"Details":"阳东Yangdong0662","Name":"阳东市","Pinyin":"Yangdong","Zip":"0662"},  
{"Details":"阳谷Yanggu0635","Name":"阳谷市","Pinyin":"Yanggu","Zip":"0635"},  
{"Details":"阳山Yangshan0763","Name":"阳山市","Pinyin":"Yangshan","Zip":"0763"},  
{"Details":"阳信Yangxin0543","Name":"阳信市","Pinyin":"Yangxin","Zip":"0543"},  
{"Details":"阳西Yangxi0662","Name":"阳西市","Pinyin":"Yangxi","Zip":"0662"},  
{"Details":"扬中Yangzhong0511","Name":"扬中市","Pinyin":"Yangzhong","Zip":"0511"},  
{"Details":"偃师Yanshi0379","Name":"偃师市","Pinyin":"Yanshi","Zip":"0379"},  
{"Details":"延寿Yanshou0451","Name":"延寿市","Pinyin":"Yanshou","Zip":"0451"},  
{"Details":"兖州Yanzhou0537","Name":"兖州市","Pinyin":"Yanzhou","Zip":"0537"},  
{"Details":"伊川Yichuan0379","Name":"伊川市","Pinyin":"Yichuan","Zip":"0379"},  
{"Details":"宜丰Yifeng0795","Name":"宜丰市","Pinyin":"Yifeng","Zip":"0795"},  
{"Details":"宜黄Yihuang0794","Name":"宜黄市","Pinyin":"Yihuang","Zip":"0794"},  
{"Details":"依兰Yilan0451","Name":"依兰市","Pinyin":"Yilan","Zip":"0451"},  
{"Details":"宜良Yiliang0871","Name":"宜良市","Pinyin":"Yiliang","Zip":"0871"},  
{"Details":"沂南Yinan0539","Name":"沂南市","Pinyin":"Yinan","Zip":"0539"},  
{"Details":"英德Yingde0763","Name":"英德市","Pinyin":"Yingde","Zip":"0763"},  
{"Details":"颍上Yingshang0558","Name":"颍上市","Pinyin":"Yingshang","Zip":"0558"},  
{"Details":"沂水Yishui0539","Name":"沂水市","Pinyin":"Yishui","Zip":"0539"},  
{"Details":"义乌Yiwu0579","Name":"义乌市","Pinyin":"Yiwu","Zip":"0579"},  
{"Details":"黟县Yixian0559","Name":"黟县市","Pinyin":"Yixian","Zip":"0559"},  
{"Details":"宜兴Yixing0510","Name":"宜兴市","Pinyin":"Yixing","Zip":"0510"},  
{"Details":"弋阳Yiyang0793","Name":"弋阳市","Pinyin":"Yiyang","Zip":"0793"},  
{"Details":"宜阳Yiyang0379","Name":"宜阳市","Pinyin":"Yiyang","Zip":"0379"},  
{"Details":"沂源Yiyuan0533","Name":"沂源市","Pinyin":"Yiyuan","Zip":"0533"},  
{"Details":"仪征Yizheng0514","Name":"仪征市","Pinyin":"Yizheng","Zip":"0514"},  
{"Details":"永安Yongan0598","Name":"永安市","Pinyin":"Yongan","Zip":"0598"},  
{"Details":"永川Yongchuan023","Name":"永川市","Pinyin":"Yongchuan","Zip":"023"},  
{"Details":"永春Yongchun0595","Name":"永春市","Pinyin":"Yongchun","Zip":"0595"},  
{"Details":"永登Yongdeng0931","Name":"永登市","Pinyin":"Yongdeng","Zip":"0931"},  
{"Details":"永定Yongding0597","Name":"永定市","Pinyin":"Yongding","Zip":"0597"},  
{"Details":"永丰Yongfeng0796","Name":"永丰市","Pinyin":"Yongfeng","Zip":"0796"},  
{"Details":"永吉Yongji0423","Name":"永吉市","Pinyin":"Yongji","Zip":"0423"},  
{"Details":"永嘉Yongjia0577","Name":"永嘉市","Pinyin":"Yongjia","Zip":"0577"},  
{"Details":"永康Yongkang0579","Name":"永康市","Pinyin":"Yongkang","Zip":"0579"},  
{"Details":"邕宁Yongning0771","Name":"邕宁市","Pinyin":"Yongning","Zip":"0771"},  
{"Details":"永泰Yongtai0591","Name":"永泰市","Pinyin":"Yongtai","Zip":"0591"},  
{"Details":"永新Yongxin0796","Name":"永新市","Pinyin":"Yongxin","Zip":"0796"},  
{"Details":"永修Yongxiu0792","Name":"永修市","Pinyin":"Yongxiu","Zip":"0792"},  
{"Details":"尤溪Youxi0598","Name":"尤溪市","Pinyin":"Youxi","Zip":"0598"},  
{"Details":"酉阳Youyang023","Name":"酉阳市","Pinyin":"Youyang","Zip":"023"},  
{"Details":"元氏Yuanshi0311","Name":"元氏市","Pinyin":"Yuanshi","Zip":"0311"},  
{"Details":"禹城Yucheng0534","Name":"禹城市","Pinyin":"Yucheng","Zip":"0534"},  
{"Details":"于都Yudu0797","Name":"于都市","Pinyin":"Yudu","Zip":"0797"},  
{"Details":"岳西Yuexi0556","Name":"岳西市","Pinyin":"Yuexi","Zip":"0556"},  
{"Details":"余干Yugan0793","Name":"余干市","Pinyin":"Yugan","Zip":"0793"},  
{"Details":"玉环Yuhuan0576","Name":"玉环市","Pinyin":"Yuhuan","Zip":"0576"},  
{"Details":"余江Yujiang0701","Name":"余江市","Pinyin":"Yujiang","Zip":"0701"},  
{"Details":"郁南Yunan0766","Name":"郁南市","Pinyin":"Yunan","Zip":"0766"},  
{"Details":"云安Yunan0766","Name":"云安市","Pinyin":"Yunan","Zip":"0766"},  
{"Details":"郓城Yuncheng0530","Name":"郓城市","Pinyin":"Yuncheng","Zip":"0530"},  
{"Details":"云和Yunhe0578","Name":"云和市","Pinyin":"Yunhe","Zip":"0578"},  
{"Details":"云霄Yunxiao0596","Name":"云霄市","Pinyin":"Yunxiao","Zip":"0596"},  
{"Details":"云阳Yunyang023","Name":"云阳市","Pinyin":"Yunyang","Zip":"023"},  
{"Details":"玉山Yushan0793","Name":"玉山市","Pinyin":"Yushan","Zip":"0793"},  
{"Details":"榆树Yushu0431","Name":"榆树市","Pinyin":"Yushu","Zip":"0431"},  
{"Details":"鱼台Yutai0537","Name":"鱼台市","Pinyin":"Yutai","Zip":"0537"},  
{"Details":"玉田Yutian0315","Name":"玉田市","Pinyin":"Yutian","Zip":"0315"},  
{"Details":"余姚Yuyao0574","Name":"余姚市","Pinyin":"Yuyao","Zip":"0574"},  
{"Details":"榆中Yuzhong0931","Name":"榆中市","Pinyin":"Yuzhong","Zip":"0931"},  
{"Details":"赞皇Zanhuang0311","Name":"赞皇市","Pinyin":"Zanhuang","Zip":"0311"},  
{"Details":"增城Zengcheng020","Name":"增城市","Pinyin":"Zengcheng","Zip":"020"},  
{"Details":"张家港Zhangjiagang0512","Name":"张家港市","Pinyin":"Zhangjiagang","Zip":"0512"},  
{"Details":"漳平Zhangping0597","Name":"漳平市","Pinyin":"Zhangping","Zip":"0597"},  
{"Details":"漳浦Zhangpu0596","Name":"漳浦市","Pinyin":"Zhangpu","Zip":"0596"},  
{"Details":"章丘Zhangqiu0531","Name":"章丘市","Pinyin":"Zhangqiu","Zip":"0531"},  
{"Details":"樟树Zhangshu0795","Name":"樟树市","Pinyin":"Zhangshu","Zip":"0795"},  
{"Details":"沾化Zhanhua0543","Name":"沾化市","Pinyin":"Zhanhua","Zip":"0543"},  
{"Details":"赵县Zhaoxian0311","Name":"赵县市","Pinyin":"Zhaoxian","Zip":"0311"},  
{"Details":"招远Zhaoyuan0535","Name":"招远市","Pinyin":"Zhaoyuan","Zip":"0535"},  
{"Details":"正定Zhengding0311","Name":"正定市","Pinyin":"Zhengding","Zip":"0311"},  
{"Details":"政和Zhenghe0599","Name":"政和市","Pinyin":"Zhenghe","Zip":"0599"},  
{"Details":"柘荣Zherong0593","Name":"柘荣市","Pinyin":"Zherong","Zip":"0593"},  
{"Details":"中牟Zhongmou0371","Name":"中牟市","Pinyin":"Zhongmou","Zip":"0371"},  
{"Details":"忠县Zhongxian023","Name":"忠县市","Pinyin":"Zhongxian","Zip":"023"},  
{"Details":"周宁Zhouning0593","Name":"周宁市","Pinyin":"Zhouning","Zip":"0593"},  
{"Details":"周至Zhouzhi029","Name":"周至市","Pinyin":"Zhouzhi","Zip":"029"},  
{"Details":"庄河Zhuanghe0411","Name":"庄河市","Pinyin":"Zhuanghe","Zip":"0411"},  
{"Details":"诸城Zhucheng0536","Name":"诸城市","Pinyin":"Zhucheng","Zip":"0536"},  
{"Details":"诸暨Zhuji0575","Name":"诸暨市","Pinyin":"Zhuji","Zip":"0575"},  
{"Details":"紫金Zijin0762","Name":"紫金市","Pinyin":"Zijin","Zip":"0762"},  
{"Details":"资溪Zixi0794","Name":"资溪市","Pinyin":"Zixi","Zip":"0794"},  
{"Details":"邹城Zoucheng0537","Name":"邹城市","Pinyin":"Zoucheng","Zip":"0537"},  
{"Details":"邹平Zouping0543","Name":"邹平市","Pinyin":"Zouping","Zip":"0543"},  
{"Details":"遵化Zunhua0315","Name":"遵化市","Pinyin":"Zunhua","Zip":"0315"}  
];